{"type":"FeatureCollection","features":[{"type":"Feature","geometry":{"type":"Polygon","coordinates":[[[-118.66798,34.19916],[-118.66808,34.19497],[-118.65847,34.19496],[-118.65848,34.19676],[-118.65661,34.19676],[-118.65707,34.19257],[-118.65745,34.18982],[-118.65873,34.18935],[-118.65968,34.18929],[-118.66145,34.1895],[-118.66732,34.19134],[-118.66814,34.19133],[-118.66818,34.18987],[-118.66815,34.17675],[-118.65859,34.17675],[-118.65863,34.16944],[-118.65426,34.16943],[-118.65428,34.16572],[-118.64553,34.1657],[-118.64555,34.16199],[-118.64197,34.16198],[-118.63973,34.15909],[-118.64127,34.15833],[-118.64127,34.15814],[-118.64127,34.15672],[-118.63854,34.15766],[-118.63216,34.15053],[-118.63125,34.15109],[-118.62981,34.14989],[-118.62899,34.14727],[-118.61497,34.14728],[-118.61498,34.14927],[-118.60965,34.14724],[-118.56475,34.13017],[-118.57633,34.11142],[-118.5992,34.07434],[-118.57039,34.06935],[-118.57011,34.04712],[-118.56714,34.04156],[-118.56718,34.04123],[-118.57066,34.02289],[-118.57333,34.0087],[-118.57362,34.00733],[-118.56685,33.98827],[-118.56969,33.98881],[-118.56639,33.98808],[-118.56311,33.98782],[-118.54609,34.00191],[-118.51524,34.02694],[-118.51499,34.02755],[-118.51264,34.02993],[-118.5107,34.03141],[-118.50935,34.03279],[-118.50867,34.03298],[-118.5087,34.03396],[-118.50769,34.03627],[-118.50808,34.0381],[-118.5081,34.03913],[-118.50755,34.04007],[-118.5066,34.04058],[-118.50458,34.04129],[-118.50396,34.04072],[-118.49447,34.05056],[-118.48377,34.04143],[-118.47914,34.04519],[-118.47844,34.04563],[-118.47835,34.04627],[-118.47728,34.0467],[-118.47438,34.04421],[-118.47372,34.04404],[-118.47127,34.04194],[-118.47089,34.04133],[-118.45917,34.03133],[-118.4577,34.03164],[-118.45714,34.02974],[-118.45306,34.02804],[-118.44593,34.01942],[-118.44352,34.01658],[-118.45065,34.01279],[-118.46093,34.00743],[-118.47143,34.00182],[-118.4799,33.99733],[-118.48143,33.99633],[-118.48168,33.9966],[-118.48399,33.9951],[-118.50091,33.98621],[-118.53766,33.96688],[-118.53347,33.96179],[-118.52575,33.9554],[-118.52345,33.95305],[-118.52085,33.94916],[-118.51814,33.94527],[-118.5136,33.93896],[-118.50863,33.93252],[-118.50648,33.92805],[-118.50091,33.91862],[-118.49887,33.91615],[-118.49634,33.91616],[-118.46808,33.91623],[-118.43698,33.91631],[-118.4453,33.92155],[-118.45728,33.94143],[-118.45703,33.9583],[-118.45948,33.9583],[-118.46096,33.96017],[-118.46003,33.96035],[-118.45808,33.96128],[-118.45752,33.96058],[-118.45645,33.96106],[-118.45489,33.95981],[-118.45352,33.95846],[-118.45189,33.95579],[-118.45005,33.953],[-118.44692,33.94726],[-118.44385,33.94218],[-118.44295,33.94029],[-118.44224,33.94044],[-118.44127,33.93899],[-118.43842,33.93336],[-118.43803,33.93243],[-118.43581,33.92807],[-118.43479,33.92558],[-118.43304,33.92213],[-118.43117,33.919],[-118.43043,33.91715],[-118.42966,33.91633],[-118.42222,33.91633],[-118.42222,33.91996],[-118.42439,33.91996],[-118.4244,33.92177],[-118.42657,33.92177],[-118.42657,33.92358],[-118.42766,33.92358],[-118.42767,33.9272],[-118.42875,33.9272],[-118.42877,33.93089],[-118.42505,33.93129],[-118.40397,33.9313],[-118.40207,33.93128],[-118.39926,33.93088],[-118.3961,33.9309],[-118.37873,33.9309],[-118.37872,33.92901],[-118.37843,33.92901],[-118.37715,33.92911],[-118.37001,33.92895],[-118.36837,33.92902],[-118.36839,33.93095],[-118.37003,33.93093],[-118.37004,33.94542],[-118.37006,33.95267],[-118.37884,33.95265],[-118.37883,33.95748],[-118.37824,33.95918],[-118.37685,33.96082],[-118.3753,33.96174],[-118.37124,33.96337],[-118.37162,33.96685],[-118.37254,33.96713],[-118.37237,33.96799],[-118.37015,33.96799],[-118.37009,33.96846],[-118.37015,33.97881],[-118.37034,33.98164],[-118.34395,33.98171],[-118.33519,33.98176],[-118.33521,33.97269],[-118.33302,33.9727],[-118.33303,33.96725],[-118.32648,33.96727],[-118.32647,33.97091],[-118.31775,33.97092],[-118.31776,33.95809],[-118.31773,33.95635],[-118.31772,33.94546],[-118.31337,33.94546],[-118.31339,33.93821],[-118.30902,33.93821],[-118.30901,33.94183],[-118.30519,33.94185],[-118.30518,33.94547],[-118.30245,33.94547],[-118.30245,33.94999],[-118.30026,33.95],[-118.30025,33.95902],[-118.30004,33.95949],[-118.2916,33.95949],[-118.29164,33.9382],[-118.29162,33.93137],[-118.29152,33.93096],[-118.29161,33.91642],[-118.29163,33.91539],[-118.29169,33.89459],[-118.29179,33.89412],[-118.2911,33.87715],[-118.29089,33.87268],[-118.29052,33.86641],[-118.29197,33.86554],[-118.29807,33.86555],[-118.29806,33.86642],[-118.2945,33.86647],[-118.29436,33.87052],[-118.29914,33.87053],[-118.29932,33.8657],[-118.30895,33.86569],[-118.30915,33.86561],[-118.30912,33.85129],[-118.30912,33.83642],[-118.30901,33.83024],[-118.30903,33.82678],[-118.30892,33.81699],[-118.30894,33.81271],[-118.3088,33.81104],[-118.30825,33.80901],[-118.3093,33.80881],[-118.30886,33.80711],[-118.30879,33.80222],[-118.30868,33.78961],[-118.30871,33.78222],[-118.30992,33.78195],[-118.30949,33.77905],[-118.30789,33.77946],[-118.30643,33.77496],[-118.30892,33.77496],[-118.30875,33.77362],[-118.30894,33.77217],[-118.31161,33.76305],[-118.30903,33.76268],[-118.30904,33.76052],[-118.30188,33.76051],[-118.301,33.75772],[-118.30909,33.75773],[-118.30912,33.75021],[-118.30961,33.74679],[-118.31111,33.7468],[-118.3111,33.74729],[-118.31217,33.7473],[-118.31218,33.74681],[-118.31845,33.74684],[-118.31848,33.74262],[-118.31961,33.74263],[-118.31997,33.74119],[-118.31888,33.74032],[-118.31896,33.73822],[-118.3185,33.73748],[-118.31892,33.7366],[-118.32005,33.73612],[-118.31991,33.73551],[-118.31851,33.73525],[-118.31853,33.73199],[-118.31982,33.73199],[-118.321,33.73087],[-118.32101,33.7294],[-118.32847,33.72942],[-118.33306,33.72186],[-118.33134,33.72093],[-118.33043,33.72023],[-118.32732,33.71942],[-118.32557,33.71866],[-118.32335,33.71863],[-118.32208,33.71755],[-118.32105,33.71755],[-118.31978,33.71658],[-118.31925,33.71527],[-118.31861,33.71531],[-118.31773,33.71478],[-118.31768,33.7138],[-118.31707,33.71358],[-118.31534,33.71453],[-118.31333,33.71462],[-118.31216,33.71393],[-118.31133,33.71379],[-118.31042,33.71302],[-118.30868,33.71247],[-118.30757,33.71192],[-118.30528,33.71162],[-118.30397,33.71106],[-118.30306,33.71093],[-118.30219,33.71033],[-118.30079,33.70983],[-118.29818,33.7097],[-118.2965,33.70882],[-118.29529,33.70739],[-118.29529,33.70659],[-118.29462,33.70474],[-118.29152,33.70522],[-118.28866,33.70535],[-118.28715,33.70637],[-118.28612,33.70666],[-118.28518,33.70825],[-118.28375,33.70868],[-118.28249,33.70883],[-118.27913,33.70835],[-118.27799,33.7074],[-118.27698,33.70774],[-118.27141,33.70475],[-118.27011,33.70415],[-118.26723,33.70365],[-118.26562,33.70387],[-118.26107,33.7054],[-118.2514,33.70848],[-118.25091,33.70869],[-118.24457,33.71067],[-118.23174,33.71485],[-118.24897,33.7559],[-118.24077,33.7583],[-118.24115,33.75854],[-118.24545,33.76389],[-118.23087,33.77485],[-118.22067,33.78254],[-118.22768,33.78997],[-118.2268,33.79215],[-118.22244,33.80415],[-118.22244,33.81245],[-118.22276,33.81294],[-118.2245,33.82157],[-118.22458,33.82438],[-118.22468,33.82438],[-118.22661,33.82949],[-118.2285,33.82438],[-118.22807,33.8242],[-118.22539,33.81101],[-118.22428,33.80842],[-118.22393,33.80705],[-118.2241,33.80541],[-118.22457,33.80434],[-118.22734,33.79984],[-118.22834,33.79666],[-118.2295,33.79354],[-118.23012,33.79262],[-118.23751,33.80051],[-118.24597,33.80012],[-118.25445,33.79969],[-118.25844,33.79944],[-118.25651,33.80477],[-118.2645,33.80456],[-118.26462,33.8045],[-118.26458,33.79913],[-118.26759,33.79894],[-118.27502,33.79865],[-118.283,33.79824],[-118.28293,33.79763],[-118.28655,33.79764],[-118.28674,33.79782],[-118.28895,33.79776],[-118.29915,33.7978],[-118.29914,33.8028],[-118.29873,33.80694],[-118.29869,33.80897],[-118.29836,33.81287],[-118.29926,33.81365],[-118.29907,33.81893],[-118.29907,33.82199],[-118.29918,33.82302],[-118.29921,33.84632],[-118.29173,33.84634],[-118.28602,33.84625],[-118.28604,33.85225],[-118.28527,33.85225],[-118.28525,33.85416],[-118.286,33.85423],[-118.29052,33.85422],[-118.29052,33.8587],[-118.28788,33.86003],[-118.28494,33.86134],[-118.28155,33.8628],[-118.28164,33.87202],[-118.28211,33.87285],[-118.28228,33.87473],[-118.28273,33.88547],[-118.2832,33.89695],[-118.28227,33.89732],[-118.28222,33.91371],[-118.28209,33.9232],[-118.27839,33.92312],[-118.27753,33.92243],[-118.27733,33.92328],[-118.27323,33.92328],[-118.27323,33.92311],[-118.25359,33.9231],[-118.25358,33.92375],[-118.25355,33.9273],[-118.25377,33.92835],[-118.25347,33.92863],[-118.25427,33.92946],[-118.23998,33.92952],[-118.23032,33.929],[-118.2309,33.93169],[-118.22921,33.93733],[-118.22865,33.93901],[-118.2295,33.9431],[-118.22748,33.94309],[-118.2286,33.9483],[-118.23403,33.94824],[-118.23399,33.95326],[-118.24422,33.95326],[-118.24421,33.95427],[-118.24745,33.95426],[-118.24748,33.95336],[-118.24884,33.95336],[-118.2491,33.94748],[-118.24914,33.94327],[-118.25364,33.94328],[-118.25353,33.95126],[-118.2541,33.95103],[-118.25593,33.95306],[-118.2559,33.96017],[-118.25639,33.96017],[-118.25639,33.9739],[-118.25644,33.98246],[-118.25644,33.9895],[-118.24788,33.98949],[-118.23902,33.9894],[-118.23792,33.98939],[-118.23809,33.99067],[-118.23938,34.006],[-118.23959,34.00889],[-118.23974,34.01349],[-118.23971,34.01471],[-118.23033,34.01482],[-118.22767,34.01492],[-118.2275,34.01528],[-118.22571,34.01532],[-118.2257,34.01494],[-118.21715,34.01497],[-118.21728,34.01564],[-118.21542,34.01498],[-118.21474,34.01498],[-118.2127,34.01429],[-118.2127,34.01498],[-118.20817,34.01501],[-118.20704,34.01278],[-118.20503,34.01263],[-118.20506,34.01452],[-118.20355,34.0141],[-118.20046,34.01364],[-118.19212,34.01292],[-118.19142,34.01286],[-118.19144,34.01508],[-118.19222,34.01508],[-118.19223,34.01655],[-118.19238,34.03323],[-118.19129,34.03327],[-118.19129,34.03442],[-118.19238,34.034],[-118.19253,34.04339],[-118.19247,34.04411],[-118.19262,34.06176],[-118.1813,34.06175],[-118.1813,34.06225],[-118.17306,34.06229],[-118.17283,34.06183],[-118.17139,34.06229],[-118.16926,34.06229],[-118.16529,34.0623],[-118.16469,34.06521],[-118.16412,34.06653],[-118.16177,34.07103],[-118.16156,34.07297],[-118.16176,34.07464],[-118.1605,34.07513],[-118.16054,34.08081],[-118.16048,34.08117],[-118.16055,34.09025],[-118.16066,34.09344],[-118.15635,34.09638],[-118.15546,34.09752],[-118.15529,34.09867],[-118.16928,34.09866],[-118.17799,34.0986],[-118.17799,34.11032],[-118.17724,34.11046],[-118.17689,34.11206],[-118.17563,34.11263],[-118.17547,34.11312],[-118.17382,34.11314],[-118.17248,34.1138],[-118.17133,34.11531],[-118.16887,34.11784],[-118.16889,34.11992],[-118.16794,34.12033],[-118.16747,34.12111],[-118.16804,34.12311],[-118.16805,34.12392],[-118.16759,34.12497],[-118.16579,34.12555],[-118.16607,34.1261],[-118.16714,34.12589],[-118.17063,34.12686],[-118.17253,34.12583],[-118.1728,34.12477],[-118.17695,34.12314],[-118.17654,34.12662],[-118.17779,34.12683],[-118.18019,34.12642],[-118.1809,34.12833],[-118.18144,34.1282],[-118.18134,34.1295],[-118.18258,34.12919],[-118.18284,34.12975],[-118.18282,34.13121],[-118.1861,34.13373],[-118.18553,34.13473],[-118.18521,34.13607],[-118.18589,34.13618],[-118.18552,34.13734],[-118.18568,34.13888],[-118.18468,34.13952],[-118.18324,34.13962],[-118.18188,34.1407],[-118.18049,34.14088],[-118.18124,34.14231],[-118.1822,34.14316],[-118.1823,34.14373],[-118.18456,34.1454],[-118.18421,34.14628],[-118.18379,34.14908],[-118.19819,34.14905],[-118.19819,34.15163],[-118.19892,34.15115],[-118.2027,34.15063],[-118.20423,34.14928],[-118.20543,34.14743],[-118.20772,34.14725],[-118.20877,34.14651],[-118.21097,34.14622],[-118.21161,34.14718],[-118.2132,34.14727],[-118.2162,34.14723],[-118.21679,34.14753],[-118.21918,34.14751],[-118.21944,34.14828],[-118.22199,34.14886],[-118.22245,34.14925],[-118.22497,34.14936],[-118.22623,34.14979],[-118.22858,34.14588],[-118.22877,34.1459],[-118.22878,34.13907],[-118.22915,34.13808],[-118.22788,34.13808],[-118.22792,34.1356],[-118.2336,34.1356],[-118.2336,34.13451],[-118.23627,34.1345],[-118.23661,34.13271],[-118.23602,34.12883],[-118.23531,34.1276],[-118.23524,34.12672],[-118.25286,34.1243],[-118.25364,34.1233],[-118.25113,34.12095],[-118.25426,34.11876],[-118.25617,34.12041],[-118.25842,34.12259],[-118.26107,34.12577],[-118.26264,34.12817],[-118.26347,34.12967],[-118.27556,34.15317],[-118.27898,34.1532],[-118.27932,34.15513],[-118.2805,34.15633],[-118.28278,34.15681],[-118.28747,34.15577],[-118.29154,34.15578],[-118.2956,34.1588],[-118.29741,34.15887],[-118.29883,34.15768],[-118.30433,34.15884],[-118.30725,34.16096],[-118.30781,34.16114],[-118.30873,34.16144],[-118.30965,34.16126],[-118.31032,34.16076],[-118.31231,34.15496],[-118.31291,34.15399],[-118.31582,34.15445],[-118.31768,34.15631],[-118.32211,34.15573],[-118.32572,34.15325],[-118.32903,34.15018],[-118.33007,34.14975],[-118.33103,34.14832],[-118.33664,34.14649],[-118.3388,34.14523],[-118.33999,34.14559],[-118.34074,34.14551],[-118.34231,34.14481],[-118.34512,34.14264],[-118.3531,34.16129],[-118.35715,34.16129],[-118.35716,34.16491],[-118.3547,34.16495],[-118.35776,34.17216],[-118.36115,34.19465],[-118.36595,34.1956],[-118.37031,34.19638],[-118.37031,34.2012],[-118.36237,34.2012],[-118.36217,34.20142],[-118.36299,34.20682],[-118.36081,34.20683],[-118.33993,34.2065],[-118.33981,34.21119],[-118.33774,34.21127],[-118.33771,34.21259],[-118.33603,34.21431],[-118.33642,34.21457],[-118.33455,34.21562],[-118.33746,34.22131],[-118.29276,34.22165],[-118.26687,34.22185],[-118.26673,34.2408],[-118.26602,34.24036],[-118.266,34.24389],[-118.26608,34.24759],[-118.26669,34.24777],[-118.26667,34.25078],[-118.2653,34.25027],[-118.26526,34.25238],[-118.2565,34.25227],[-118.25669,34.26719],[-118.25391,34.2672],[-118.2389,34.26706],[-118.23849,34.26709],[-118.23845,34.28158],[-118.25101,34.28162],[-118.25616,34.28175],[-118.2737,34.28197],[-118.27381,34.27839],[-118.28669,34.27849],[-118.28641,34.2891],[-118.28628,34.29279],[-118.29062,34.29284],[-118.29061,34.29336],[-118.29949,34.29335],[-118.29952,34.28614],[-118.30114,34.2861],[-118.30822,34.2861],[-118.32691,34.28606],[-118.32683,34.28244],[-118.35173,34.28248],[-118.35173,34.27883],[-118.35471,34.27885],[-118.36052,34.27996],[-118.36131,34.27973],[-118.36428,34.28077],[-118.36728,34.28059],[-118.3689,34.28326],[-118.36951,34.28346],[-118.37018,34.2819],[-118.37135,34.28234],[-118.37066,34.28334],[-118.37023,34.28539],[-118.36984,34.28613],[-118.37352,34.28615],[-118.37352,34.28317],[-118.37467,34.28283],[-118.3748,34.28366],[-118.3771,34.28336],[-118.38186,34.2839],[-118.38576,34.28482],[-118.38462,34.28818],[-118.38462,34.28973],[-118.38692,34.28973],[-118.38686,34.29153],[-118.38237,34.29153],[-118.38237,34.29333],[-118.38295,34.29333],[-118.38288,34.29696],[-118.38738,34.29694],[-118.3874,34.29878],[-118.3939,34.2988],[-118.39393,34.29698],[-118.39674,34.29698],[-118.39698,34.29335],[-118.39981,34.29342],[-118.40029,34.29243],[-118.40091,34.29014],[-118.40082,34.28845],[-118.40114,34.28845],[-118.40159,34.28642],[-118.40617,34.28593],[-118.4094,34.28901],[-118.41029,34.29107],[-118.41022,34.29184],[-118.40896,34.29181],[-118.40907,34.29366],[-118.40351,34.29351],[-118.40346,34.29711],[-118.4012,34.29707],[-118.40105,34.30067],[-118.4056,34.30073],[-118.40545,34.30436],[-118.40547,34.30791],[-118.40375,34.30792],[-118.40357,34.30897],[-118.40411,34.30904],[-118.40388,34.31005],[-118.40302,34.30939],[-118.4009,34.31003],[-118.40079,34.31644],[-118.39972,34.31646],[-118.39843,34.31703],[-118.39762,34.31701],[-118.39653,34.31742],[-118.39628,34.31807],[-118.39626,34.31986],[-118.40066,34.31954],[-118.40272,34.3213],[-118.40491,34.32208],[-118.4052,34.32981],[-118.41358,34.32988],[-118.41358,34.32741],[-118.41221,34.3259],[-118.41359,34.3251],[-118.41435,34.32444],[-118.41589,34.32449],[-118.41905,34.32566],[-118.42075,34.32557],[-118.42074,34.32772],[-118.41946,34.32793],[-118.41821,34.32949],[-118.41901,34.32988],[-118.43183,34.32988],[-118.44942,34.32995],[-118.47234,34.33012],[-118.4844,34.33028],[-118.49297,34.33077],[-118.50381,34.33731],[-118.53401,34.31453],[-118.5463,34.31733],[-118.54551,34.31566],[-118.54709,34.31335],[-118.54572,34.31003],[-118.54367,34.30572],[-118.5443,34.30394],[-118.54333,34.30326],[-118.54259,34.30136],[-118.54156,34.30022],[-118.54082,34.29881],[-118.5467,34.29787],[-118.5498,34.29697],[-118.55403,34.29641],[-118.55739,34.29924],[-118.55977,34.29919],[-118.5621,34.29879],[-118.56355,34.29785],[-118.56447,34.29689],[-118.56742,34.29495],[-118.56871,34.29464],[-118.57015,34.29536],[-118.57016,34.2958],[-118.57102,34.29693],[-118.57176,34.29862],[-118.58509,34.30348],[-118.58718,34.30309],[-118.59162,34.2875],[-118.59083,34.2825],[-118.59217,34.28236],[-118.5917,34.28023],[-118.59257,34.27804],[-118.59372,34.27718],[-118.59565,34.27526],[-118.59621,34.27452],[-118.60414,34.27747],[-118.60531,34.27772],[-118.60734,34.27774],[-118.62257,34.27564],[-118.62563,34.27489],[-118.62764,34.27398],[-118.62956,34.27269],[-118.63346,34.26952],[-118.63255,34.26335],[-118.63265,34.24948],[-118.63256,34.2428],[-118.63244,34.23857],[-118.62995,34.23858],[-118.63146,34.23702],[-118.63953,34.23757],[-118.64336,34.23776],[-118.64698,34.23808],[-118.64971,34.22712],[-118.65405,34.22711],[-118.65405,34.2235],[-118.65839,34.2235],[-118.6584,34.21657],[-118.65234,34.21657],[-118.65324,34.21295],[-118.66274,34.2129],[-118.66276,34.20934],[-118.6678,34.20933],[-118.66781,34.2058],[-118.66798,34.19916]],[[-118.46876,34.06519],[-118.46889,34.06587],[-118.46673,34.06771],[-118.46534,34.06699],[-118.4632,34.06507],[-118.46281,34.06311],[-118.4611,34.06005],[-118.45878,34.05807],[-118.45516,34.06024],[-118.45962,34.06544],[-118.45479,34.06672],[-118.4544,34.0656],[-118.45313,34.064],[-118.45013,34.06078],[-118.44578,34.05533],[-118.44909,34.05335],[-118.44839,34.05241],[-118.44909,34.052],[-118.44817,34.04958],[-118.44836,34.04937],[-118.45222,34.04706],[-118.45407,34.04921],[-118.45658,34.04772],[-118.46248,34.05451],[-118.46795,34.06091],[-118.46876,34.06519]],[[-118.46348,33.98105],[-118.45505,33.98642],[-118.44926,33.98489],[-118.44775,33.98455],[-118.4416,33.98338],[-118.43922,33.98076],[-118.43654,33.97851],[-118.4339,33.97674],[-118.43226,33.97502],[-118.4513,33.96423],[-118.45319,33.96705],[-118.45476,33.96968],[-118.45453,33.96984],[-118.45748,33.97379],[-118.46142,33.97836],[-118.46197,33.97937],[-118.46348,33.98105]],[[-118.45568,34.2846],[-118.45601,34.2849],[-118.44944,34.2897],[-118.45,34.2904],[-118.4455,34.29441],[-118.44478,34.2938],[-118.43257,34.30469],[-118.42932,34.30184],[-118.4214,34.29438],[-118.41856,34.29645],[-118.41579,34.29384],[-118.41863,34.29176],[-118.41712,34.29036],[-118.43057,34.28055],[-118.43242,34.27875],[-118.43371,34.27774],[-118.43559,34.27937],[-118.43639,34.27868],[-118.44373,34.27331],[-118.45568,34.2846]],[[-118.38665,33.97691],[-118.39765,33.98207],[-118.39836,33.98321],[-118.39489,33.98385],[-118.39867,33.98801],[-118.40124,33.98639],[-118.4062,33.9894],[-118.40515,33.9905],[-118.40786,33.99212],[-118.40711,33.99236],[-118.4055,33.99333],[-118.40503,33.99459],[-118.40281,33.99583],[-118.40098,33.99912],[-118.40159,33.99996],[-118.4008,34.00142],[-118.39979,34.00183],[-118.40277,34.00347],[-118.40589,33.99924],[-118.40908,34.00121],[-118.40964,34.0005],[-118.41423,34.00343],[-118.4161,34.00052],[-118.41805,33.9992],[-118.41891,33.99815],[-118.42021,33.99746],[-118.42844,33.99656],[-118.4311,33.99638],[-118.43018,33.99013],[-118.42972,33.98976],[-118.43087,33.98919],[-118.43246,33.99145],[-118.43717,33.99528],[-118.44195,33.99289],[-118.44205,33.993],[-118.44695,33.99055],[-118.44847,33.99336],[-118.44471,33.99438],[-118.44335,33.99532],[-118.44246,33.9936],[-118.43581,33.99692],[-118.43531,33.9969],[-118.43033,33.99945],[-118.43084,34.0001],[-118.42849,34.00134],[-118.42598,33.99807],[-118.42048,33.99867],[-118.41918,34.00003],[-118.41824,34.00062],[-118.42125,34.00442],[-118.41734,34.00675],[-118.41923,34.0091],[-118.42008,34.00865],[-118.42141,34.01032],[-118.41178,34.01582],[-118.40686,34.01857],[-118.40572,34.01709],[-118.405,34.01718],[-118.40242,34.0187],[-118.40044,34.01999],[-118.40025,34.02086],[-118.39949,34.02129],[-118.39893,34.02078],[-118.39745,34.02166],[-118.39835,34.02292],[-118.39432,34.02524],[-118.39348,34.02539],[-118.39276,34.0262],[-118.38717,34.0294],[-118.3864,34.02891],[-118.38421,34.03021],[-118.37592,34.03242],[-118.36958,34.03508],[-118.3719,34.02993],[-118.37364,34.03042],[-118.37622,34.02865],[-118.3771,34.02623],[-118.37637,34.02585],[-118.3767,34.02399],[-118.37795,34.02203],[-118.37793,34.02125],[-118.38135,34.02069],[-118.38089,34.02012],[-118.37876,34.01873],[-118.37797,34.01802],[-118.37585,34.01805],[-118.37589,34.01852],[-118.37267,34.01836],[-118.37385,34.01611],[-118.37407,34.01513],[-118.3738,34.01353],[-118.37309,34.01191],[-118.37286,34.01192],[-118.37265,34.01584],[-118.36672,34.01562],[-118.36717,34.00709],[-118.36503,34.00556],[-118.36266,34.00632],[-118.36212,34.00685],[-118.36144,34.00833],[-118.35861,34.00906],[-118.35754,34.00914],[-118.35753,34.00705],[-118.35908,34.00191],[-118.35908,34.00117],[-118.35834,33.99971],[-118.3578,33.99715],[-118.35689,33.99783],[-118.3564,33.99986],[-118.35547,34.00105],[-118.35396,34.00216],[-118.35204,34.00407],[-118.35035,34.0049],[-118.34893,34.00492],[-118.34569,34.00449],[-118.34259,34.0045],[-118.34125,34.00476],[-118.33795,34.00649],[-118.33707,34.00753],[-118.33569,34.00826],[-118.33552,34.00724],[-118.33498,34.00612],[-118.33366,34.00436],[-118.33251,34.00343],[-118.33186,34.00254],[-118.33148,34.00149],[-118.3315,33.99841],[-118.33163,33.99633],[-118.33728,33.99631],[-118.33727,33.98849],[-118.34247,33.98845],[-118.34249,33.98942],[-118.35268,33.98933],[-118.35268,33.98306],[-118.36126,33.98303],[-118.3717,33.983],[-118.3718,33.98206],[-118.3718,33.97985],[-118.37181,33.97732],[-118.37701,33.97704],[-118.38051,33.97636],[-118.38525,33.97664],[-118.38665,33.97691]],[[-118.38973,34.07649],[-118.39072,34.0765],[-118.3907,34.07208],[-118.38376,34.07212],[-118.38373,34.06968],[-118.3774,34.06971],[-118.37618,34.06934],[-118.37575,34.0701],[-118.37506,34.06873],[-118.37203,34.06387],[-118.37224,34.0622],[-118.376,34.05997],[-118.37727,34.05952],[-118.37733,34.06295],[-118.38353,34.06294],[-118.38367,34.0571],[-118.40127,34.0571],[-118.40345,34.05702],[-118.40592,34.0571],[-118.40593,34.05483],[-118.40612,34.05415],[-118.40557,34.05296],[-118.40611,34.05278],[-118.41155,34.06043],[-118.4122,34.0601],[-118.41417,34.06284],[-118.41351,34.06317],[-118.41725,34.06838],[-118.41639,34.06887],[-118.41738,34.07021],[-118.41846,34.07236],[-118.41964,34.07265],[-118.42093,34.07543],[-118.42184,34.07509],[-118.42329,34.07569],[-118.42286,34.0769],[-118.4233,34.07757],[-118.42383,34.07974],[-118.42279,34.07996],[-118.42278,34.08309],[-118.42696,34.08304],[-118.42704,34.09063],[-118.42266,34.09064],[-118.42274,34.09432],[-118.42229,34.09427],[-118.41393,34.09427],[-118.41245,34.0928],[-118.41176,34.09232],[-118.41147,34.0935],[-118.40944,34.09486],[-118.40919,34.09554],[-118.4095,34.09608],[-118.40889,34.09712],[-118.40905,34.10007],[-118.40869,34.10151],[-118.40541,34.10146],[-118.40532,34.0963],[-118.40242,34.09367],[-118.40179,34.09414],[-118.40089,34.09399],[-118.40104,34.10874],[-118.39867,34.10875],[-118.40005,34.11091],[-118.3992,34.11149],[-118.39658,34.11164],[-118.39658,34.11241],[-118.39114,34.11242],[-118.39057,34.1092],[-118.39131,34.10742],[-118.3921,34.10608],[-118.39208,34.09905],[-118.39256,34.0985],[-118.39541,34.09617],[-118.39651,34.09618],[-118.3965,34.09507],[-118.39591,34.09501],[-118.39584,34.09105],[-118.38604,34.09104],[-118.38605,34.09246],[-118.38504,34.09359],[-118.38337,34.09372],[-118.38337,34.09333],[-118.38118,34.09332],[-118.38118,34.0921],[-118.37911,34.09307],[-118.37658,34.09475],[-118.37285,34.09559],[-118.3714,34.09651],[-118.37014,34.09704],[-118.36874,34.09797],[-118.36817,34.09709],[-118.36165,34.09718],[-118.36154,34.09446],[-118.34338,34.09433],[-118.34339,34.0889],[-118.3528,34.08896],[-118.3528,34.08713],[-118.3627,34.08719],[-118.36271,34.08879],[-118.36327,34.08897],[-118.36644,34.08892],[-118.36643,34.08714],[-118.37023,34.08708],[-118.37023,34.08561],[-118.37248,34.08544],[-118.3725,34.09026],[-118.37423,34.08996],[-118.37538,34.08914],[-118.37695,34.08863],[-118.37703,34.08304],[-118.3703,34.08316],[-118.37029,34.08017],[-118.37421,34.08016],[-118.3742,34.08202],[-118.37525,34.08201],[-118.37526,34.08016],[-118.37725,34.08021],[-118.37689,34.07897],[-118.37722,34.07817],[-118.37717,34.07659],[-118.37865,34.07661],[-118.37977,34.0764],[-118.38066,34.07671],[-118.38169,34.0764],[-118.38384,34.07646],[-118.38973,34.07649]],[[-118.4176,34.10717],[-118.41749,34.1125],[-118.41604,34.11251],[-118.41587,34.11196],[-118.41407,34.11198],[-118.41412,34.11074],[-118.41179,34.1107],[-118.41181,34.10888],[-118.40973,34.10885],[-118.40975,34.10515],[-118.41746,34.1052],[-118.4176,34.10717]],[[-118.41473,33.98402],[-118.41342,33.98497],[-118.40909,33.98125],[-118.41018,33.9813],[-118.41246,33.9803],[-118.41473,33.98402]],[[-118.3618,34.13885],[-118.36215,34.13903],[-118.36099,34.14104],[-118.36116,34.14275],[-118.35939,34.14271],[-118.35893,34.14314],[-118.35392,34.14299],[-118.35206,34.14282],[-118.34846,34.14208],[-118.34705,34.14197],[-118.34502,34.1424],[-118.34323,34.13821],[-118.34403,34.13785],[-118.34442,34.1368],[-118.34421,34.13606],[-118.34558,34.13511],[-118.34656,34.13465],[-118.34671,34.13389],[-118.34768,34.13361],[-118.34845,34.13289],[-118.3484,34.13199],[-118.34877,34.13139],[-118.34964,34.13239],[-118.35115,34.1337],[-118.352,34.13419],[-118.35303,34.13398],[-118.35438,34.13418],[-118.35699,34.13504],[-118.35723,34.13634],[-118.35786,34.13763],[-118.35887,34.13805],[-118.35882,34.13862],[-118.35761,34.13815],[-118.35698,34.13907],[-118.35792,34.13947],[-118.35982,34.13935],[-118.35982,34.13875],[-118.3618,34.13885]],[[-118.30915,33.73792],[-118.30912,33.74162],[-118.30868,33.74154],[-118.30426,33.74153],[-118.30426,33.73996],[-118.30206,33.73931],[-118.30206,33.7407],[-118.30299,33.7407],[-118.30299,33.74152],[-118.30165,33.74152],[-118.30167,33.74333],[-118.29951,33.74335],[-118.2995,33.74408],[-118.29801,33.74414],[-118.298,33.74335],[-118.29671,33.74332],[-118.29674,33.73788],[-118.30915,33.73792]],[[-118.29922,33.85423],[-118.29922,33.85831],[-118.29703,33.85832],[-118.29703,33.84728],[-118.29921,33.84729],[-118.29922,33.85423]]]},"properties":{"id":"CA-LOS-ANGELES","name":"Los Angeles","geoid":"0644000"}},{"type":"Feature","geometry":{"type":"Polygon","coordinates":[[[-117.89435,33.77448],[-117.89428,33.769],[-117.89863,33.76899],[-117.89868,33.77379],[-117.89961,33.77345],[-117.90085,33.77347],[-117.90084,33.77263],[-117.90301,33.77262],[-117.90291,33.76474],[-117.90509,33.76458],[-117.90507,33.7635],[-117.90725,33.76349],[-117.90719,33.75783],[-117.9071,33.75763],[-117.90707,33.75352],[-117.90719,33.75315],[-117.91216,33.7562],[-117.91152,33.7562],[-117.91156,33.75982],[-117.92064,33.75979],[-117.9301,33.7597],[-117.93008,33.75788],[-117.93109,33.75788],[-117.93155,33.75861],[-117.9322,33.7586],[-117.93264,33.75968],[-117.93763,33.75964],[-117.93755,33.75238],[-117.94189,33.75234],[-117.94177,33.74139],[-117.94394,33.74138],[-117.94388,33.73707],[-117.94171,33.73713],[-117.94166,33.73351],[-117.94164,33.73264],[-117.93731,33.73268],[-117.9374,33.73149],[-117.9366,33.73149],[-117.93659,33.73085],[-117.93,33.73084],[-117.92413,33.73099],[-117.92415,33.73284],[-117.91557,33.73286],[-117.91553,33.72936],[-117.91534,33.72883],[-117.91423,33.72861],[-117.91531,33.72562],[-117.91658,33.72265],[-117.91893,33.71811],[-117.92042,33.71557],[-117.92927,33.70223],[-117.92953,33.70198],[-117.91946,33.70209],[-117.9194,33.69559],[-117.90783,33.69568],[-117.90782,33.69631],[-117.8983,33.69639],[-117.89607,33.69634],[-117.89217,33.6964],[-117.89216,33.69412],[-117.88697,33.69414],[-117.88138,33.69409],[-117.86822,33.69408],[-117.86809,33.69271],[-117.86773,33.69194],[-117.86594,33.69388],[-117.86529,33.6943],[-117.85819,33.70188],[-117.85543,33.7047],[-117.84873,33.70008],[-117.84325,33.70558],[-117.83764,33.71126],[-117.84284,33.7148],[-117.84465,33.71555],[-117.83752,33.72267],[-117.83697,33.72309],[-117.83405,33.72604],[-117.8344,33.72651],[-117.83378,33.72752],[-117.83353,33.73384],[-117.84251,33.73377],[-117.84246,33.73655],[-117.84219,33.73655],[-117.84219,33.73882],[-117.84348,33.73882],[-117.84348,33.74197],[-117.84033,33.742],[-117.84034,33.7435],[-117.83929,33.74285],[-117.83811,33.74253],[-117.83811,33.74352],[-117.83604,33.74352],[-117.83599,33.74386],[-117.83383,33.74388],[-117.8344,33.74467],[-117.83413,33.74716],[-117.83223,33.74716],[-117.83223,33.74963],[-117.83154,33.74963],[-117.8314,33.75034],[-117.8311,33.75626],[-117.83078,33.75751],[-117.83033,33.75812],[-117.83036,33.75963],[-117.83139,33.76019],[-117.8313,33.76351],[-117.83131,33.77076],[-117.8314,33.77295],[-117.83249,33.77296],[-117.83352,33.77326],[-117.83901,33.77325],[-117.83901,33.7751],[-117.83574,33.77511],[-117.83574,33.77558],[-117.8379,33.77624],[-117.8401,33.77639],[-117.8401,33.77695],[-117.8428,33.77691],[-117.84708,33.77577],[-117.8488,33.77556],[-117.84881,33.77485],[-117.8533,33.77482],[-117.85683,33.77645],[-117.85947,33.77529],[-117.86156,33.77502],[-117.86732,33.77501],[-117.86729,33.77862],[-117.8695,33.77856],[-117.87615,33.77855],[-117.8789,33.78108],[-117.88197,33.78401],[-117.88377,33.78211],[-117.88525,33.77935],[-117.88812,33.77363],[-117.89009,33.77421],[-117.89209,33.77449],[-117.89435,33.77448]]]},"properties":{"id":"CA-SANTA-ANA","name":"Santa Ana","geoid":"0669000"}},{"type":"Feature","geometry":{"type":"MultiPolygon","coordinates":[[[[-116.93292,32.60819],[-116.93242,32.60665],[-116.93372,32.60632],[-116.9332,32.60472],[-116.93163,32.60516],[-116.93143,32.60476],[-116.93082,32.60481],[-116.93084,32.60815],[-116.92568,32.60822],[-116.92565,32.61197],[-116.92778,32.61196],[-116.92778,32.61106],[-116.92916,32.61109],[-116.92915,32.61009],[-116.93212,32.6101],[-116.93219,32.60819],[-116.93292,32.60819]]],[[[-117.2623,32.93975],[-117.26232,32.93905],[-117.26179,32.93662],[-117.26102,32.93445],[-117.26067,32.93296],[-117.26006,32.92827],[-117.26015,32.92766],[-117.25961,32.926],[-117.25952,32.92332],[-117.25922,32.91875],[-117.25884,32.91608],[-117.25847,32.91429],[-117.25681,32.91099],[-117.25596,32.90832],[-117.25583,32.90681],[-117.25508,32.90601],[-117.25419,32.90155],[-117.25359,32.89721],[-117.25345,32.89464],[-117.2535,32.89299],[-117.2533,32.89211],[-117.25337,32.8891],[-117.25305,32.88478],[-117.25253,32.88274],[-117.2517,32.88055],[-117.25115,32.8772],[-117.2513,32.8754],[-117.25195,32.87291],[-117.25329,32.87134],[-117.25395,32.86783],[-117.25415,32.86623],[-117.25465,32.86497],[-117.25505,32.86283],[-117.2561,32.85977],[-117.25759,32.8573],[-117.25796,32.85638],[-117.26073,32.85264],[-117.26359,32.85065],[-117.2642,32.84958],[-117.2656,32.84883],[-117.2667,32.849],[-117.26749,32.84862],[-117.26937,32.84949],[-117.27015,32.85028],[-117.27152,32.85055],[-117.27261,32.85036],[-117.27334,32.85118],[-117.27414,32.85066],[-117.27521,32.84958],[-117.27593,32.84951],[-117.27731,32.84793],[-117.27909,32.84734],[-117.27881,32.84575],[-117.27925,32.84441],[-117.28087,32.84363],[-117.28126,32.84316],[-117.28224,32.84013],[-117.28159,32.83832],[-117.28143,32.83676],[-117.28167,32.83467],[-117.28206,32.83384],[-117.28226,32.83262],[-117.2811,32.83064],[-117.28102,32.82984],[-117.28052,32.82902],[-117.28,32.82722],[-117.27989,32.82614],[-117.28021,32.82446],[-117.28065,32.82406],[-117.28046,32.82307],[-117.28069,32.82196],[-117.27975,32.82088],[-117.27928,32.82086],[-117.27826,32.8199],[-117.27776,32.81992],[-117.27681,32.81892],[-117.27611,32.81849],[-117.2747,32.81864],[-117.27347,32.8176],[-117.27307,32.8167],[-117.2735,32.81598],[-117.27347,32.81427],[-117.27239,32.81402],[-117.27153,32.81336],[-117.27072,32.81213],[-117.27013,32.81167],[-117.26899,32.80911],[-117.26753,32.80771],[-117.26699,32.80762],[-117.26518,32.80794],[-117.26364,32.80685],[-117.26182,32.80451],[-117.26086,32.80351],[-117.25983,32.80202],[-117.25889,32.80034],[-117.25787,32.79794],[-117.25604,32.79277],[-117.25458,32.78666],[-117.25367,32.78181],[-117.25342,32.77918],[-117.25283,32.76679],[-117.25331,32.76036],[-117.25354,32.75923],[-117.25412,32.75898],[-117.25345,32.75712],[-117.25327,32.75564],[-117.25286,32.7542],[-117.25373,32.75397],[-117.25353,32.75272],[-117.25345,32.74951],[-117.25358,32.7477],[-117.25412,32.74681],[-117.25493,32.74669],[-117.25544,32.74435],[-117.25498,32.74304],[-117.25526,32.74134],[-117.25508,32.74044],[-117.25528,32.73692],[-117.25601,32.73572],[-117.25591,32.73516],[-117.25649,32.73456],[-117.25652,32.73372],[-117.25704,32.73336],[-117.25658,32.73254],[-117.25691,32.73208],[-117.25672,32.73002],[-117.25632,32.72988],[-117.25568,32.7276],[-117.25667,32.72631],[-117.25835,32.72536],[-117.25775,32.72443],[-117.25749,32.72326],[-117.2571,32.72288],[-117.25726,32.7198],[-117.25627,32.718],[-117.25582,32.71628],[-117.2559,32.71556],[-117.25653,32.71517],[-117.25618,32.71309],[-117.2562,32.71172],[-117.25546,32.70976],[-117.25529,32.70875],[-117.25556,32.70736],[-117.25557,32.70436],[-117.25509,32.70226],[-117.2553,32.70133],[-117.2551,32.69981],[-117.2555,32.69922],[-117.25471,32.69878],[-117.25399,32.69713],[-117.25421,32.69666],[-117.2539,32.69571],[-117.25403,32.6948],[-117.25326,32.69452],[-117.25284,32.69387],[-117.25289,32.69255],[-117.25195,32.6913],[-117.25025,32.68956],[-117.25009,32.6886],[-117.25044,32.68699],[-117.25007,32.68547],[-117.24965,32.68468],[-117.24997,32.68388],[-117.2496,32.68294],[-117.24887,32.68294],[-117.24835,32.68238],[-117.24885,32.68129],[-117.24853,32.67991],[-117.24756,32.67757],[-117.24692,32.67721],[-117.24721,32.67658],[-117.24671,32.67507],[-117.24577,32.67405],[-117.24532,32.67303],[-117.24566,32.67227],[-117.24541,32.67173],[-117.24551,32.66958],[-117.24469,32.6685],[-117.24506,32.66775],[-117.24455,32.6663],[-117.2427,32.66481],[-117.24224,32.66516],[-117.23932,32.66587],[-117.23813,32.66681],[-117.23704,32.66818],[-117.23754,32.66939],[-117.23753,32.67007],[-117.23647,32.67096],[-117.23632,32.67186],[-117.20185,32.67426],[-117.19414,32.68576],[-117.19535,32.68612],[-117.19802,32.68661],[-117.20297,32.68708],[-117.20384,32.68745],[-117.20586,32.68876],[-117.20763,32.68931],[-117.21117,32.69007],[-117.21185,32.69042],[-117.21356,32.6895],[-117.21506,32.68925],[-117.21968,32.68781],[-117.2213,32.68689],[-117.22502,32.68689],[-117.22568,32.68732],[-117.22569,32.68791],[-117.22665,32.68889],[-117.22701,32.6908],[-117.22704,32.69494],[-117.22562,32.69548],[-117.22443,32.6963],[-117.22237,32.69721],[-117.22081,32.69865],[-117.22015,32.69985],[-117.21979,32.70101],[-117.21836,32.70324],[-117.21759,32.704],[-117.21593,32.70489],[-117.21378,32.70623],[-117.20943,32.70868],[-117.20602,32.71033],[-117.20376,32.71195],[-117.20006,32.71373],[-117.19753,32.71446],[-117.19583,32.71463],[-117.19361,32.71433],[-117.19001,32.71272],[-117.18984,32.71323],[-117.18687,32.71113],[-117.18942,32.70623],[-117.18852,32.7059],[-117.18085,32.70359],[-117.18097,32.7032],[-117.18004,32.70227],[-117.17836,32.70172],[-117.17634,32.7013],[-117.17434,32.70064],[-117.17246,32.70026],[-117.17144,32.69988],[-117.16827,32.69906],[-117.16665,32.69834],[-117.1659,32.6973],[-117.16392,32.69364],[-117.16379,32.69222],[-117.1624,32.69255],[-117.14352,32.67806],[-117.13513,32.67318],[-117.12961,32.66622],[-117.12454,32.63561],[-117.1196,32.6057],[-117.11671,32.60605],[-117.11488,32.5942],[-117.11499,32.5938],[-117.11855,32.59129],[-117.11688,32.59135],[-117.11465,32.59043],[-117.11422,32.58974],[-117.11176,32.58942],[-117.1103,32.58958],[-117.10951,32.58917],[-117.10894,32.58831],[-117.1081,32.58788],[-117.10659,32.58775],[-117.10558,32.58803],[-117.10554,32.58408],[-117.10385,32.58407],[-117.10384,32.57652],[-117.10124,32.5765],[-117.10125,32.56918],[-117.10137,32.56796],[-117.09957,32.56793],[-117.09958,32.56686],[-117.10131,32.56687],[-117.10144,32.56552],[-117.10148,32.55937],[-117.10143,32.55827],[-117.10747,32.55822],[-117.11875,32.55822],[-117.11891,32.53642],[-117.11888,32.53479],[-117.062,32.53967],[-117.02661,32.54269],[-116.99725,32.5452],[-116.9631,32.5481],[-116.928,32.55108],[-116.92785,32.55274],[-116.92783,32.56009],[-116.93661,32.5602],[-116.93644,32.56746],[-116.94549,32.56756],[-116.94921,32.56768],[-116.94995,32.56753],[-116.9537,32.56761],[-116.95367,32.5786],[-116.95153,32.57856],[-116.95157,32.58584],[-116.96222,32.58619],[-116.96222,32.58436],[-116.96666,32.58436],[-116.96666,32.58246],[-116.97105,32.58246],[-116.98261,32.58255],[-116.9839,32.58252],[-116.98809,32.58136],[-116.9934,32.5796],[-116.99562,32.57914],[-116.99947,32.57801],[-117.00151,32.58311],[-117.01447,32.58363],[-117.01448,32.59108],[-117.03232,32.59122],[-117.03229,32.58753],[-117.03578,32.5875],[-117.0356,32.59115],[-117.04076,32.59113],[-117.04077,32.59127],[-117.04496,32.5912],[-117.04492,32.58741],[-117.04926,32.58737],[-117.0493,32.59106],[-117.0537,32.59105],[-117.0538,32.58742],[-117.05813,32.58743],[-117.05812,32.59103],[-117.0838,32.59115],[-117.08408,32.59119],[-117.08409,32.59481],[-117.08951,32.59495],[-117.09033,32.5961],[-117.09049,32.5976],[-117.09113,32.5991],[-117.09119,32.60156],[-117.09247,32.60157],[-117.09263,32.60222],[-117.09256,32.6046],[-117.09819,32.60515],[-117.09849,32.60523],[-117.10065,32.60418],[-117.10235,32.60392],[-117.10412,32.60232],[-117.10815,32.60367],[-117.10957,32.60423],[-117.11646,32.60657],[-117.11856,32.60627],[-117.12056,32.61898],[-117.12176,32.62519],[-117.12406,32.6365],[-117.12569,32.64475],[-117.12926,32.66726],[-117.13448,32.67382],[-117.14187,32.67817],[-117.1344,32.67866],[-117.12586,32.67908],[-117.12475,32.67929],[-117.12132,32.67942],[-117.11821,32.68027],[-117.11629,32.6809],[-117.11454,32.68131],[-117.10141,32.68502],[-117.10225,32.68745],[-117.10244,32.68896],[-117.09814,32.68894],[-117.09813,32.68839],[-117.09603,32.68838],[-117.09603,32.68897],[-117.09373,32.68898],[-117.09377,32.69216],[-117.09139,32.69214],[-117.09046,32.69131],[-117.08727,32.69132],[-117.08727,32.6919],[-117.08513,32.6919],[-117.08513,32.69237],[-117.08385,32.69278],[-117.08144,32.69329],[-117.0798,32.69275],[-117.07847,32.69319],[-117.07783,32.69159],[-117.07665,32.69192],[-117.07617,32.69016],[-117.07551,32.68847],[-117.06536,32.69135],[-117.06397,32.68788],[-117.06599,32.68733],[-117.06565,32.68682],[-117.06465,32.68384],[-117.07283,32.68156],[-117.06825,32.66974],[-117.06782,32.66838],[-117.06543,32.66242],[-117.06439,32.66281],[-117.06126,32.66367],[-117.05855,32.66392],[-117.057,32.6642],[-117.05716,32.66465],[-117.05529,32.66497],[-117.05286,32.66575],[-117.05019,32.66701],[-117.04397,32.67051],[-117.04303,32.67074],[-117.04175,32.67148],[-117.03925,32.6736],[-117.03704,32.67646],[-117.0328,32.67989],[-117.03247,32.68045],[-117.03101,32.68101],[-117.02941,32.68222],[-117.02874,32.68325],[-117.02826,32.68327],[-117.02635,32.68465],[-117.02591,32.68578],[-117.02477,32.68595],[-117.02407,32.68651],[-117.02325,32.68725],[-117.02144,32.68831],[-117.02283,32.69248],[-117.02208,32.6933],[-117.02197,32.69459],[-117.02279,32.69653],[-117.0246,32.69708],[-117.02523,32.69868],[-117.01881,32.70044],[-117.01976,32.70091],[-117.02119,32.70394],[-117.02116,32.70498],[-117.0201,32.70605],[-117.02069,32.70753],[-117.01816,32.70826],[-117.02044,32.71477],[-117.02311,32.71479],[-117.02299,32.71848],[-117.02448,32.71847],[-117.02846,32.71868],[-117.02846,32.72118],[-117.02947,32.72119],[-117.03016,32.72179],[-117.03021,32.72026],[-117.03197,32.72033],[-117.03194,32.71548],[-117.03262,32.7153],[-117.03457,32.71671],[-117.0345,32.72033],[-117.03547,32.72025],[-117.03536,32.7212],[-117.03652,32.72105],[-117.03667,32.72029],[-117.03781,32.72066],[-117.03882,32.71956],[-117.04035,32.72028],[-117.04065,32.71993],[-117.04173,32.72057],[-117.04637,32.71508],[-117.04931,32.71515],[-117.04932,32.72631],[-117.04922,32.72967],[-117.05076,32.72964],[-117.05074,32.73041],[-117.04992,32.73041],[-117.04976,32.73335],[-117.05157,32.73336],[-117.05261,32.73228],[-117.05484,32.73161],[-117.05632,32.73057],[-117.05755,32.72992],[-117.05864,32.73047],[-117.05983,32.7305],[-117.06047,32.73088],[-117.06262,32.72949],[-117.06396,32.72967],[-117.05927,32.73269],[-117.05804,32.73372],[-117.0581,32.73512],[-117.05388,32.73963],[-117.05166,32.74183],[-117.05127,32.74246],[-117.04959,32.74341],[-117.04928,32.74358],[-117.04913,32.75566],[-117.05009,32.75556],[-117.05348,32.75577],[-117.05335,32.76327],[-117.05116,32.76325],[-117.05113,32.76601],[-117.04558,32.76601],[-117.0456,32.76765],[-117.0404,32.76774],[-117.04042,32.76883],[-117.03895,32.76885],[-117.03899,32.77036],[-117.03964,32.77036],[-117.04038,32.77095],[-117.04702,32.77084],[-117.04683,32.77257],[-117.04648,32.77349],[-117.0486,32.77426],[-117.04882,32.7755],[-117.04865,32.77734],[-117.04959,32.77723],[-117.05138,32.77794],[-117.04867,32.77953],[-117.04865,32.78022],[-117.04769,32.78048],[-117.04696,32.77976],[-117.04429,32.78006],[-117.0437,32.77945],[-117.04368,32.77722],[-117.04216,32.77893],[-117.04114,32.77931],[-117.03995,32.77944],[-117.04,32.78138],[-117.03895,32.78138],[-117.03901,32.78211],[-117.03752,32.7831],[-117.03731,32.78414],[-117.03632,32.78587],[-117.03508,32.7864],[-117.03355,32.78804],[-117.03192,32.78879],[-117.031,32.79055],[-117.0321,32.79052],[-117.03245,32.79004],[-117.03579,32.78873],[-117.03749,32.78879],[-117.03809,32.78956],[-117.03809,32.79037],[-117.0371,32.79147],[-117.02201,32.79138],[-117.01787,32.79138],[-117.00601,32.79132],[-117.00588,32.79473],[-117.00602,32.79473],[-117.00606,32.80075],[-117.006,32.80259],[-117.00613,32.80953],[-117.00595,32.81294],[-117.00997,32.81562],[-117.01364,32.81797],[-117.01654,32.81971],[-117.03456,32.8315],[-117.03817,32.83145],[-117.0366,32.83297],[-117.03841,32.8341],[-117.03728,32.83552],[-117.03668,32.83844],[-117.02677,32.83702],[-117.0266,32.83741],[-117.02489,32.83872],[-117.02398,32.83869],[-117.02228,32.83782],[-117.02235,32.83673],[-117.01984,32.83665],[-117.01292,32.8361],[-117.00882,32.83642],[-117.00775,32.8366],[-117.00545,32.83733],[-117.00541,32.84156],[-117.0076,32.84057],[-117.01072,32.8403],[-117.0138,32.83982],[-117.01648,32.83767],[-117.01863,32.83709],[-117.02193,32.83854],[-117.02328,32.83924],[-117.02345,32.84218],[-117.02346,32.84487],[-117.02394,32.84581],[-117.02126,32.8478],[-117.01901,32.84884],[-117.01893,32.84982],[-117.018,32.85004],[-117.0171,32.8506],[-117.01563,32.85027],[-117.01402,32.85112],[-117.0135,32.85257],[-117.01157,32.85323],[-117.01113,32.85559],[-117.01273,32.85559],[-117.01358,32.85687],[-117.01381,32.85801],[-117.0127,32.85914],[-117.01276,32.86089],[-117.01168,32.86149],[-117.01194,32.86205],[-117.01423,32.86134],[-117.01487,32.862],[-117.01522,32.86288],[-117.01329,32.86291],[-117.0123,32.86371],[-117.0132,32.86473],[-117.01234,32.86528],[-117.01173,32.86498],[-117.01075,32.86701],[-117.00934,32.86644],[-117.00319,32.87726],[-117.00199,32.87882],[-116.99979,32.88123],[-116.99684,32.88566],[-116.99555,32.88782],[-116.99429,32.89039],[-116.99335,32.89263],[-116.99306,32.89485],[-116.98774,32.89869],[-116.98429,32.89927],[-116.98432,32.90302],[-116.98429,32.9049],[-116.98928,32.90501],[-116.98964,32.91952],[-116.98934,32.91957],[-116.98955,32.9339],[-116.98373,32.93398],[-116.98385,32.93489],[-116.98454,32.93609],[-116.98452,32.93792],[-116.98363,32.93872],[-116.98173,32.94006],[-116.98038,32.93991],[-116.98067,32.94185],[-116.98198,32.94263],[-116.98336,32.94253],[-116.98532,32.94286],[-116.98707,32.94283],[-116.9903,32.94238],[-116.99255,32.94252],[-116.99424,32.94226],[-116.99592,32.94231],[-116.99781,32.94308],[-116.99928,32.9442],[-117.00086,32.94473],[-117.00115,32.94438],[-117.00783,32.94212],[-117.00844,32.94161],[-117.01048,32.94136],[-117.01053,32.94045],[-117.01253,32.93882],[-117.01298,32.93732],[-117.01495,32.93713],[-117.01656,32.93536],[-117.01769,32.93453],[-117.02126,32.93324],[-117.02613,32.93193],[-117.0279,32.9308],[-117.02985,32.93045],[-117.03304,32.9291],[-117.03395,32.92802],[-117.03652,32.92792],[-117.03746,32.92725],[-117.04092,32.92741],[-117.04416,32.92765],[-117.04651,32.92716],[-117.04821,32.9278],[-117.05018,32.92759],[-117.05554,32.929],[-117.05737,32.93071],[-117.05822,32.93103],[-117.05821,32.92781],[-117.06664,32.92772],[-117.06674,32.93444],[-117.06732,32.93508],[-117.0667,32.9365],[-117.06676,32.94231],[-117.0708,32.94232],[-117.07106,32.94242],[-117.07107,32.94594],[-117.0754,32.94598],[-117.0754,32.94958],[-117.08389,32.94963],[-117.08428,32.96193],[-117.08429,32.96457],[-117.06688,32.96436],[-117.0668,32.97219],[-117.06661,32.97922],[-117.06656,32.98272],[-117.06626,32.99145],[-117.06634,32.99325],[-117.06209,32.9932],[-117.06207,32.99489],[-117.0601,32.99471],[-117.0572,33.00575],[-117.05671,33.00731],[-117.05532,33.01248],[-117.05377,33.01873],[-117.05236,33.02386],[-117.04775,33.03229],[-117.04741,33.0325],[-117.04559,33.03591],[-117.04292,33.04074],[-117.04101,33.04402],[-117.0397,33.04402],[-117.03826,33.04575],[-117.03792,33.04699],[-117.03834,33.04889],[-117.03826,33.04963],[-117.03771,33.05005],[-117.03685,33.05009],[-117.03609,33.05112],[-117.03528,33.05169],[-117.03561,33.05314],[-117.03413,33.05397],[-117.03321,33.05349],[-117.03253,33.05367],[-117.03188,33.05316],[-117.0312,33.05187],[-117.0302,33.05224],[-117.02976,33.05281],[-117.03031,33.05358],[-117.03012,33.05478],[-117.02842,33.05665],[-117.02769,33.05678],[-117.02685,33.05739],[-117.02614,33.05753],[-117.02515,33.05849],[-117.02452,33.05853],[-117.02444,33.05989],[-117.02315,33.05985],[-117.02313,33.06163],[-117.02413,33.06154],[-117.02512,33.0625],[-117.02746,33.06241],[-117.02871,33.06289],[-117.02884,33.0636],[-117.03004,33.06465],[-117.02943,33.06604],[-117.01877,33.06632],[-117.01883,33.06676],[-117.01871,33.07318],[-117.01476,33.07329],[-117.00469,33.07324],[-116.99736,33.07317],[-116.99283,33.07319],[-116.98854,33.07307],[-116.98836,33.0711],[-116.98839,33.06954],[-116.98001,33.06959],[-116.98016,33.07465],[-116.97888,33.07371],[-116.97806,33.07355],[-116.97511,33.07489],[-116.97429,33.07588],[-116.97144,33.07522],[-116.97157,33.08011],[-116.96684,33.08009],[-116.95765,33.08014],[-116.95773,33.08249],[-116.95478,33.08264],[-116.95479,33.08388],[-116.95405,33.08398],[-116.95416,33.08575],[-116.95481,33.08575],[-116.95495,33.08774],[-116.95064,33.08775],[-116.95081,33.09518],[-116.94644,33.09509],[-116.94629,33.08737],[-116.94531,33.08737],[-116.94527,33.08365],[-116.94633,33.08371],[-116.94626,33.08014],[-116.9366,33.08014],[-116.92818,33.08004],[-116.91432,33.07986],[-116.91435,33.08353],[-116.90572,33.08365],[-116.90574,33.08654],[-116.90576,33.0914],[-116.90822,33.09143],[-116.93227,33.0912],[-116.93229,33.09505],[-116.94169,33.09509],[-116.94151,33.09872],[-116.95494,33.0987],[-116.95528,33.0937],[-116.95702,33.09361],[-116.95934,33.09292],[-116.95954,33.09139],[-116.96371,33.09129],[-116.96386,33.095],[-116.96336,33.10568],[-116.98095,33.1054],[-116.98097,33.10898],[-116.99211,33.10898],[-116.99386,33.10913],[-116.99828,33.10915],[-116.9983,33.10555],[-117.00275,33.1055],[-117.00275,33.10177],[-117.00722,33.10174],[-117.00715,33.10903],[-117.00892,33.109],[-117.00891,33.11142],[-117.01081,33.1114],[-117.01078,33.11222],[-117.00937,33.11228],[-117.00939,33.11419],[-117.01265,33.11416],[-117.01274,33.11357],[-117.02028,33.10923],[-117.02012,33.10546],[-117.02484,33.10523],[-117.02433,33.09855],[-117.02435,33.09823],[-117.0261,33.0979],[-117.02468,33.09731],[-117.0226,33.09695],[-117.02103,33.09752],[-117.02059,33.09237],[-117.02393,33.09243],[-117.02391,33.09062],[-117.02101,33.09068],[-117.02077,33.09004],[-117.02322,33.08742],[-117.02156,33.08744],[-117.02557,33.08316],[-117.02549,33.08448],[-117.02609,33.08467],[-117.02637,33.08541],[-117.02824,33.08563],[-117.02874,33.08648],[-117.03019,33.08718],[-117.03052,33.08597],[-117.0312,33.0853],[-117.03207,33.08375],[-117.03316,33.08302],[-117.03402,33.08292],[-117.03485,33.08342],[-117.03538,33.08321],[-117.03606,33.08001],[-117.03668,33.07943],[-117.03535,33.07902],[-117.0351,33.07803],[-117.03556,33.07762],[-117.03635,33.07561],[-117.03723,33.07607],[-117.03739,33.07531],[-117.03803,33.07466],[-117.03782,33.07422],[-117.03855,33.07371],[-117.04275,33.07204],[-117.04605,33.07151],[-117.04717,33.06792],[-117.0415,33.0675],[-117.0393,33.06632],[-117.03966,33.06572],[-117.03849,33.06526],[-117.03809,33.06474],[-117.03885,33.06288],[-117.04005,33.0621],[-117.04013,33.06166],[-117.04123,33.06103],[-117.04263,33.06128],[-117.04297,33.06029],[-117.04455,33.05949],[-117.04669,33.0596],[-117.04823,33.05927],[-117.04872,33.05943],[-117.04973,33.05899],[-117.0506,33.05909],[-117.05127,33.05965],[-117.05447,33.06021],[-117.05343,33.06157],[-117.05663,33.06195],[-117.05813,33.06261],[-117.05751,33.06397],[-117.05751,33.06554],[-117.06113,33.06826],[-117.06192,33.06798],[-117.06473,33.06776],[-117.06652,33.06774],[-117.06707,33.06752],[-117.06836,33.06547],[-117.07015,33.06533],[-117.06957,33.06397],[-117.07007,33.06335],[-117.06985,33.06281],[-117.07102,33.06195],[-117.07306,33.06179],[-117.07325,33.06132],[-117.07437,33.06073],[-117.07529,33.06069],[-117.07673,33.06098],[-117.07756,33.06059],[-117.07806,33.0608],[-117.07818,33.06181],[-117.07872,33.06213],[-117.07947,33.06383],[-117.08209,33.0646],[-117.08201,33.06402],[-117.08125,33.06353],[-117.08335,33.06173],[-117.08372,33.06071],[-117.08526,33.0597],[-117.08595,33.05889],[-117.08743,33.05778],[-117.08791,33.05765],[-117.09055,33.05799],[-117.09175,33.05969],[-117.09304,33.06042],[-117.09578,33.06139],[-117.09528,33.06202],[-117.09545,33.06265],[-117.09512,33.06345],[-117.09661,33.06331],[-117.09849,33.06453],[-117.0989,33.06558],[-117.09903,33.06729],[-117.1005,33.06807],[-117.10185,33.06932],[-117.10294,33.06959],[-117.10377,33.07011],[-117.10414,33.07077],[-117.10506,33.07133],[-117.10568,33.07227],[-117.10589,33.07388],[-117.10685,33.07321],[-117.11414,33.07989],[-117.11473,33.07907],[-117.11544,33.07906],[-117.11625,33.07798],[-117.11751,33.07755],[-117.11819,33.07662],[-117.11828,33.07536],[-117.11803,33.07378],[-117.11813,33.0708],[-117.1186,33.06997],[-117.11937,33.06779],[-117.12019,33.06622],[-117.12015,33.06509],[-117.11936,33.0645],[-117.11937,33.06384],[-117.12018,33.06279],[-117.11985,33.0623],[-117.11892,33.06219],[-117.11892,33.06121],[-117.11818,33.06052],[-117.11846,33.05903],[-117.11847,33.05753],[-117.11767,33.05609],[-117.11829,33.05523],[-117.12212,33.05482],[-117.12191,33.0535],[-117.1225,33.05089],[-117.1229,33.05011],[-117.12365,33.04955],[-117.12521,33.04909],[-117.12729,33.0476],[-117.12974,33.04667],[-117.13012,33.04618],[-117.13285,33.04382],[-117.11842,33.04382],[-117.11836,33.04649],[-117.11733,33.04664],[-117.11802,33.04876],[-117.1172,33.05022],[-117.11508,33.05173],[-117.11459,33.05343],[-117.11342,33.05422],[-117.11401,33.05446],[-117.11359,33.05637],[-117.11329,33.05847],[-117.11355,33.06081],[-117.11458,33.06331],[-117.11449,33.06405],[-117.11493,33.06469],[-117.11517,33.06631],[-117.11501,33.06675],[-117.11382,33.06804],[-117.11273,33.06796],[-117.11179,33.06675],[-117.11192,33.06572],[-117.11255,33.06519],[-117.11282,33.06421],[-117.11277,33.06329],[-117.11189,33.06196],[-117.1098,33.0612],[-117.11027,33.0592],[-117.1018,33.05912],[-117.09477,33.055],[-117.0899,33.04926],[-117.08985,33.04904],[-117.099,33.01235],[-117.09586,33.01213],[-117.09822,33.00337],[-117.09962,32.99799],[-117.10934,32.99879],[-117.10983,32.99873],[-117.11829,32.99952],[-117.12473,33.00005],[-117.12333,33.0058],[-117.12173,33.01187],[-117.12073,33.01627],[-117.12047,33.01798],[-117.11971,33.02015],[-117.11934,33.02208],[-117.13063,33.02206],[-117.13552,33.0221],[-117.14126,33.02196],[-117.14645,33.02191],[-117.15158,33.02177],[-117.15242,33.02151],[-117.1525,33.01101],[-117.15245,33.00737],[-117.16086,33.0073],[-117.16986,33.00723],[-117.16987,33.00444],[-117.16981,32.98664],[-117.16985,32.98563],[-117.16984,32.97386],[-117.16987,32.97023],[-117.17295,32.97021],[-117.17437,32.96997],[-117.17466,32.97033],[-117.17851,32.9703],[-117.17851,32.97393],[-117.18098,32.97383],[-117.18198,32.97401],[-117.18775,32.97395],[-117.20016,32.97399],[-117.20026,32.9776],[-117.20321,32.97758],[-117.20448,32.97881],[-117.19662,32.98496],[-117.1989,32.98495],[-117.21147,32.98534],[-117.21713,32.98553],[-117.21787,32.98442],[-117.21952,32.98386],[-117.22151,32.98376],[-117.22149,32.98242],[-117.2225,32.98272],[-117.22446,32.98375],[-117.22602,32.98418],[-117.2265,32.98486],[-117.22726,32.98392],[-117.22861,32.98326],[-117.2287,32.98293],[-117.23155,32.98256],[-117.23335,32.98185],[-117.23827,32.98184],[-117.23875,32.98197],[-117.23869,32.98574],[-117.24958,32.98562],[-117.24942,32.98325],[-117.24953,32.98205],[-117.25127,32.98199],[-117.25606,32.98212],[-117.25615,32.97942],[-117.25617,32.97415],[-117.25596,32.96806],[-117.25597,32.96359],[-117.25575,32.96345],[-117.2558,32.96112],[-117.25549,32.95797],[-117.25588,32.95797],[-117.2559,32.95298],[-117.26018,32.95285],[-117.26017,32.95112],[-117.26068,32.95099],[-117.25972,32.94846],[-117.26095,32.9481],[-117.26013,32.94561],[-117.25592,32.94564],[-117.25598,32.94202],[-117.25815,32.94201],[-117.25815,32.9384],[-117.25945,32.93741],[-117.2623,32.93975]],[[-117.11675,32.89301],[-117.1167,32.89818],[-117.11232,32.89813],[-117.10748,32.89816],[-117.10747,32.89579],[-117.10937,32.89438],[-117.11137,32.89389],[-117.11648,32.89283],[-117.11675,32.89301]]]]},"properties":{"id":"CA-SAN-DIEGO","name":"San Diego","geoid":"0666000"}},{"type":"Feature","geometry":{"type":"Polygon","coordinates":[[[-122.36778,37.86673],[-122.35588,37.83573],[-122.3337,37.84037],[-122.33014,37.84111],[-122.30103,37.84739],[-122.29775,37.84815],[-122.28874,37.84999],[-122.28612,37.85053],[-122.28601,37.85017],[-122.28357,37.85064],[-122.2832,37.84935],[-122.28246,37.84912],[-122.2819,37.84698],[-122.27619,37.84773],[-122.2758,37.84587],[-122.26914,37.84674],[-122.26951,37.84858],[-122.26837,37.84877],[-122.26896,37.85162],[-122.26222,37.85253],[-122.25979,37.85301],[-122.25399,37.85375],[-122.25326,37.8537],[-122.25292,37.85077],[-122.25068,37.85139],[-122.23418,37.85238],[-122.23476,37.85779],[-122.23812,37.85755],[-122.23819,37.85769],[-122.24161,37.85707],[-122.24255,37.85771],[-122.2426,37.85872],[-122.24392,37.85864],[-122.24444,37.85933],[-122.24401,37.86074],[-122.24476,37.86286],[-122.24552,37.86404],[-122.24462,37.86472],[-122.24493,37.86768],[-122.24691,37.88535],[-122.24926,37.88697],[-122.24954,37.88931],[-122.25029,37.88983],[-122.24903,37.89076],[-122.24967,37.89282],[-122.25105,37.89382],[-122.25191,37.8935],[-122.25294,37.89376],[-122.2527,37.89452],[-122.25288,37.89536],[-122.25377,37.89622],[-122.25502,37.89633],[-122.2557,37.8959],[-122.2563,37.89679],[-122.25607,37.89824],[-122.25664,37.89952],[-122.25711,37.89986],[-122.25802,37.89914],[-122.25876,37.89909],[-122.25936,37.89969],[-122.2607,37.89964],[-122.26114,37.90007],[-122.26129,37.90139],[-122.26239,37.90172],[-122.26403,37.90378],[-122.26554,37.90432],[-122.26724,37.90445],[-122.26764,37.90425],[-122.26809,37.90399],[-122.27035,37.90439],[-122.27154,37.90494],[-122.27108,37.90582],[-122.27359,37.90507],[-122.27481,37.90387],[-122.27787,37.90315],[-122.27728,37.90172],[-122.27878,37.90074],[-122.28002,37.90078],[-122.28364,37.9],[-122.28416,37.8993],[-122.28669,37.89851],[-122.28705,37.89092],[-122.28241,37.89117],[-122.28167,37.88826],[-122.28274,37.88538],[-122.28185,37.88503],[-122.28296,37.88242],[-122.28714,37.88251],[-122.28937,37.88313],[-122.29053,37.8832],[-122.29232,37.8829],[-122.29372,37.88307],[-122.29445,37.88258],[-122.29595,37.88294],[-122.29671,37.88352],[-122.29856,37.88294],[-122.30081,37.88273],[-122.30242,37.88231],[-122.30776,37.88184],[-122.30853,37.88221],[-122.31245,37.88138],[-122.36778,37.86673]]]},"properties":{"id":"CA-BERKELEY","name":"Berkeley","geoid":"0606000"}},{"type":"Feature","geometry":{"type":"MultiPolygon","coordinates":[[[[-122.44548,37.84243],[-122.45398,37.83903],[-122.47283,37.83189],[-122.47362,37.83193],[-122.47449,37.83364],[-122.47613,37.83364],[-122.47781,37.83322],[-122.4781,37.83275],[-122.47729,37.83215],[-122.4774,37.83167],[-122.47844,37.83091],[-122.4787,37.82949],[-122.47847,37.82922],[-122.47855,37.82736],[-122.47835,37.82576],[-122.47968,37.82544],[-122.48182,37.82606],[-122.48326,37.82565],[-122.48323,37.82629],[-122.48456,37.82688],[-122.48506,37.82645],[-122.4862,37.82624],[-122.48854,37.82677],[-122.4899,37.8269],[-122.49122,37.8266],[-122.49212,37.82508],[-122.49319,37.82466],[-122.49356,37.82395],[-122.49437,37.8236],[-122.49584,37.82214],[-122.49642,37.82232],[-122.49881,37.82223],[-122.49988,37.82159],[-122.49968,37.8206],[-122.4991,37.81988],[-122.50071,37.81985],[-122.50177,37.8209],[-122.50338,37.82113],[-122.50447,37.82103],[-122.50488,37.82181],[-122.50563,37.82227],[-122.50586,37.82307],[-122.51129,37.8247],[-122.51244,37.82452],[-122.51507,37.82524],[-122.51593,37.8253],[-122.51688,37.82467],[-122.51768,37.8252],[-122.51917,37.82505],[-122.5207,37.82528],[-122.52286,37.82493],[-122.52383,37.82455],[-122.52382,37.82404],[-122.52461,37.82336],[-122.52439,37.82249],[-122.52533,37.82251],[-122.52553,37.82112],[-122.52716,37.82096],[-122.52885,37.82011],[-122.52936,37.81901],[-122.52859,37.81764],[-122.52889,37.81692],[-122.52782,37.8157],[-122.52893,37.81549],[-122.53623,37.8153],[-122.54639,37.81523],[-122.55089,37.81533],[-122.58459,37.81523],[-122.61228,37.81522],[-122.60024,37.80248],[-122.58817,37.78936],[-122.58473,37.77916],[-122.58128,37.7602],[-122.57829,37.73399],[-122.57519,37.70672],[-122.55069,37.70733],[-122.50438,37.70813],[-122.48638,37.70816],[-122.46698,37.70821],[-122.46445,37.70827],[-122.46371,37.70801],[-122.46285,37.70837],[-122.46231,37.70799],[-122.45822,37.70803],[-122.45743,37.70843],[-122.45535,37.70834],[-122.45491,37.70804],[-122.4536,37.70849],[-122.45235,37.70822],[-122.45169,37.70844],[-122.451,37.70795],[-122.44966,37.70799],[-122.44816,37.70852],[-122.44635,37.70808],[-122.44551,37.70837],[-122.44456,37.70806],[-122.44305,37.7084],[-122.442,37.70807],[-122.44034,37.7085],[-122.43903,37.70804],[-122.43817,37.70846],[-122.43678,37.70792],[-122.43572,37.70843],[-122.43501,37.70801],[-122.43355,37.70838],[-122.43151,37.70815],[-122.43039,37.70835],[-122.42542,37.70831],[-122.42386,37.7082],[-122.42334,37.70928],[-122.41922,37.70812],[-122.41718,37.70839],[-122.41348,37.7083],[-122.4081,37.70832],[-122.40514,37.70843],[-122.40473,37.70836],[-122.39468,37.70839],[-122.38748,37.70833],[-122.38108,37.70843],[-122.37168,37.70833],[-122.36038,37.70833],[-122.29458,37.70823],[-122.28178,37.70823],[-122.28518,37.71363],[-122.29188,37.72413],[-122.29448,37.72803],[-122.30028,37.73743],[-122.30118,37.73883],[-122.31048,37.75383],[-122.32792,37.7812],[-122.33658,37.79503],[-122.34102,37.80183],[-122.34668,37.81103],[-122.349,37.81721],[-122.35588,37.83573],[-122.36778,37.86673],[-122.37378,37.88373],[-122.37478,37.88452],[-122.39938,37.90373],[-122.42268,37.92222],[-122.43228,37.92982],[-122.43018,37.91843],[-122.42408,37.88463],[-122.42268,37.87813],[-122.42248,37.87643],[-122.41988,37.86043],[-122.41867,37.85251],[-122.42247,37.85111],[-122.44548,37.84243]]],[[[-123.17382,37.77573],[-123.17376,37.77183],[-123.17293,37.7636],[-123.16998,37.75593],[-123.1667,37.74993],[-123.16275,37.74353],[-123.15676,37.73784],[-123.14913,37.73228],[-123.14149,37.72616],[-123.1326,37.71939],[-123.12611,37.71673],[-123.11964,37.71544],[-123.11557,37.71405],[-123.10492,37.71265],[-123.09965,37.71359],[-123.0948,37.71407],[-123.09285,37.71369],[-123.0918,37.71187],[-123.08878,37.70579],[-123.08606,37.70075],[-123.08188,37.69684],[-123.07715,37.69232],[-123.07492,37.69007],[-123.07306,37.68258],[-123.06859,37.67304],[-123.06358,37.66732],[-123.05358,37.65865],[-123.0407,37.65033],[-123.02715,37.64522],[-123.0116,37.64151],[-123.00111,37.64178],[-123.00091,37.63993],[-122.98675,37.64178],[-122.98051,37.6439],[-122.97301,37.64658],[-122.96301,37.65198],[-122.95488,37.65835],[-122.94907,37.66338],[-122.94501,37.66977],[-122.94136,37.67658],[-122.93966,37.68235],[-122.93903,37.68654],[-122.93734,37.69093],[-122.93571,37.69762],[-122.93586,37.70246],[-122.93768,37.70924],[-122.93971,37.71535],[-122.94229,37.72106],[-122.94552,37.72531],[-122.94998,37.73219],[-122.95464,37.73683],[-122.95839,37.73973],[-122.96106,37.74195],[-122.9641,37.74428],[-122.96727,37.7463],[-122.97045,37.74782],[-122.97326,37.74865],[-122.97406,37.74993],[-122.97545,37.75259],[-122.9776,37.75498],[-122.98143,37.75892],[-122.98741,37.76387],[-122.99754,37.77078],[-123.00111,37.77205],[-123.00615,37.77352],[-123.01059,37.77493],[-123.01697,37.77607],[-123.02585,37.77709],[-123.03144,37.77715],[-123.03384,37.77837],[-123.0351,37.78043],[-123.03873,37.78888],[-123.04882,37.79982],[-123.07049,37.81383],[-123.08165,37.81815],[-123.09526,37.82188],[-123.11829,37.82306],[-123.12611,37.82166],[-123.13227,37.81968],[-123.13944,37.81672],[-123.14721,37.81195],[-123.15333,37.80744],[-123.16094,37.802],[-123.16601,37.79689],[-123.16911,37.79236],[-123.17382,37.77573]]]]},"properties":{"id":"CA-SAN-FRANCISCO","name":"San Francisco","geoid":"0667000"}},{"type":"Feature","geometry":{"type":"Polygon","coordinates":[[[-74.07869,40.7506],[-74.0752,40.74739],[-74.07705,40.74325],[-74.08197,40.74053],[-74.08306,40.74015],[-74.08929,40.7384],[-74.09396,40.7352],[-74.0947,40.73447],[-74.09854,40.72728],[-74.09909,40.7261],[-74.10377,40.71872],[-74.11706,40.71038],[-74.11279,40.7031],[-74.11456,40.70107],[-74.11423,40.70094],[-74.10285,40.69542],[-74.10277,40.69506],[-74.10119,40.69264],[-74.10123,40.69171],[-74.102,40.69087],[-74.10202,40.69037],[-74.09982,40.68591],[-74.09935,40.68397],[-74.09813,40.68068],[-74.08987,40.67714],[-74.08929,40.67693],[-74.06571,40.66703],[-74.06583,40.66688],[-74.04963,40.66163],[-74.02639,40.7001],[-74.02364,40.71807],[-74.02064,40.73039],[-74.02951,40.73304],[-74.02927,40.73368],[-74.03857,40.73632],[-74.03961,40.73641],[-74.04282,40.73595],[-74.04274,40.7366],[-74.04387,40.7376],[-74.04337,40.73848],[-74.04375,40.73886],[-74.04378,40.73985],[-74.04304,40.74079],[-74.04229,40.74127],[-74.04244,40.74286],[-74.04184,40.74412],[-74.0392,40.74754],[-74.03778,40.75032],[-74.0388,40.75099],[-74.04201,40.75218],[-74.04262,40.7529],[-74.04365,40.75659],[-74.04582,40.75738],[-74.04892,40.75844],[-74.04989,40.75959],[-74.05186,40.76053],[-74.05697,40.76899],[-74.05851,40.76671],[-74.05998,40.76572],[-74.05965,40.76389],[-74.06002,40.76254],[-74.06124,40.76235],[-74.06251,40.76267],[-74.06355,40.76352],[-74.06493,40.76376],[-74.06643,40.76274],[-74.06853,40.762],[-74.07234,40.75995],[-74.07266,40.7589],[-74.0748,40.75815],[-74.07514,40.75715],[-74.07483,40.75577],[-74.07618,40.75518],[-74.07639,40.75438],[-74.07519,40.75291],[-74.07558,40.75245],[-74.07747,40.75201],[-74.07869,40.7506]],[[-74.04721,40.69084],[-74.04597,40.6911],[-74.04388,40.69019],[-74.04345,40.68963],[-74.04362,40.68876],[-74.04479,40.68859],[-74.04625,40.68932],[-74.04718,40.69041],[-74.04721,40.69084]]]},"properties":{"id":"NJ-JERSEY-CITY","name":"Jersey City","geoid":"3436000"}},{"type":"Feature","geometry":{"type":"Polygon","coordinates":[[[-74.23467,40.75056],[-74.23529,40.75014],[-74.2359,40.74889],[-74.23703,40.74555],[-74.23846,40.74472],[-74.23912,40.74295],[-74.23897,40.74243],[-74.24061,40.74056],[-74.24391,40.74174],[-74.24505,40.74053],[-74.2459,40.74095],[-74.24764,40.73979],[-74.24794,40.73997],[-74.25136,40.73753],[-74.25101,40.73622],[-74.2497,40.73484],[-74.24869,40.73441],[-74.24437,40.73331],[-74.24313,40.73201],[-74.24375,40.73084],[-74.24278,40.73059],[-74.24234,40.7314],[-74.24141,40.73118],[-74.24093,40.7321],[-74.23977,40.73186],[-74.2391,40.73306],[-74.23734,40.73406],[-74.23649,40.73375],[-74.23577,40.73511],[-74.2349,40.73484],[-74.23446,40.73568],[-74.23171,40.7349],[-74.22963,40.73609],[-74.22744,40.73693],[-74.22662,40.73795],[-74.22537,40.73749],[-74.22498,40.73806],[-74.22412,40.73782],[-74.22378,40.73858],[-74.22292,40.73837],[-74.22267,40.73898],[-74.22161,40.73927],[-74.22075,40.73906],[-74.21965,40.73944],[-74.21937,40.74013],[-74.21827,40.73987],[-74.2172,40.74119],[-74.2161,40.74068],[-74.21537,40.74159],[-74.2144,40.74114],[-74.21304,40.74243],[-74.21228,40.74207],[-74.21183,40.74281],[-74.21087,40.74253],[-74.21042,40.74328],[-74.20933,40.74291],[-74.21012,40.74108],[-74.2122,40.7357],[-74.21266,40.7358],[-74.21518,40.72932],[-74.2158,40.72813],[-74.21548,40.72771],[-74.2162,40.72654],[-74.21726,40.72376],[-74.21737,40.72212],[-74.21864,40.72101],[-74.21902,40.71996],[-74.22234,40.71641],[-74.22347,40.71535],[-74.22384,40.71559],[-74.22774,40.71125],[-74.22671,40.71062],[-74.22845,40.70886],[-74.22855,40.70851],[-74.22195,40.70734],[-74.21301,40.70091],[-74.20925,40.69071],[-74.20155,40.68667],[-74.16993,40.68855],[-74.16927,40.68862],[-74.16763,40.68996],[-74.16505,40.69016],[-74.16239,40.68961],[-74.16102,40.68891],[-74.15967,40.68697],[-74.15906,40.68642],[-74.15786,40.68595],[-74.15532,40.68612],[-74.15386,40.68592],[-74.15265,40.68522],[-74.15043,40.68315],[-74.14898,40.68224],[-74.13915,40.67712],[-74.13577,40.67556],[-74.1367,40.67444],[-74.13656,40.67437],[-74.13521,40.67625],[-74.1314,40.6809],[-74.12291,40.69117],[-74.11727,40.69781],[-74.11456,40.70107],[-74.11279,40.7031],[-74.11706,40.71038],[-74.12029,40.7159],[-74.12139,40.721],[-74.12099,40.7229],[-74.11809,40.7325],[-74.11699,40.73713],[-74.1176,40.73964],[-74.12119,40.7417],[-74.12279,40.7421],[-74.1368,40.74146],[-74.13749,40.7414],[-74.14269,40.7393],[-74.14529,40.7357],[-74.14719,40.7344],[-74.15119,40.7339],[-74.15569,40.7335],[-74.15998,40.73449],[-74.16209,40.73611],[-74.16379,40.7392],[-74.16599,40.7452],[-74.16608,40.74724],[-74.16566,40.7501],[-74.16493,40.75357],[-74.1648,40.75472],[-74.16451,40.75639],[-74.16339,40.7594],[-74.16207,40.76148],[-74.15867,40.76494],[-74.15769,40.7661],[-74.15664,40.76799],[-74.1558,40.77082],[-74.1535,40.77377],[-74.15224,40.77521],[-74.14979,40.77747],[-74.14899,40.778],[-74.14834,40.77989],[-74.14908,40.77992],[-74.15279,40.78061],[-74.15686,40.78229],[-74.16012,40.7835],[-74.16255,40.78484],[-74.16431,40.78558],[-74.16614,40.78673],[-74.1696,40.78695],[-74.17032,40.78719],[-74.17166,40.78824],[-74.17262,40.78748],[-74.17403,40.7869],[-74.17474,40.78563],[-74.17695,40.78344],[-74.1765,40.78319],[-74.1776,40.78211],[-74.17773,40.78147],[-74.17688,40.78097],[-74.17739,40.78],[-74.17655,40.77974],[-74.17775,40.77743],[-74.17879,40.77775],[-74.17917,40.77703],[-74.18012,40.77731],[-74.18061,40.77788],[-74.18158,40.77657],[-74.18246,40.77683],[-74.18409,40.77564],[-74.18453,40.7748],[-74.18521,40.77501],[-74.18626,40.77467],[-74.18685,40.77457],[-74.18945,40.76828],[-74.18976,40.76863],[-74.19466,40.75923],[-74.1951,40.75936],[-74.19629,40.75706],[-74.19673,40.75719],[-74.1985,40.75394],[-74.19933,40.75418],[-74.20106,40.75076],[-74.20194,40.75101],[-74.20395,40.74881],[-74.20666,40.74958],[-74.2068,40.7493],[-74.22014,40.7488],[-74.2217,40.74521],[-74.22282,40.74521],[-74.22588,40.74601],[-74.22892,40.74645],[-74.22642,40.75109],[-74.23317,40.75153],[-74.23467,40.75056]]]},"properties":{"id":"NJ-NEWARK","name":"Newark","geoid":"3451000"}},{"type":"Feature","geometry":{"type":"Polygon","coordinates":[[[-74.03778,40.75032],[-74.0392,40.74754],[-74.04184,40.74412],[-74.04244,40.74286],[-74.04229,40.74127],[-74.04304,40.74079],[-74.04378,40.73985],[-74.04375,40.73886],[-74.04337,40.73848],[-74.04387,40.7376],[-74.04274,40.7366],[-74.04282,40.73595],[-74.03961,40.73641],[-74.03857,40.73632],[-74.02927,40.73368],[-74.02951,40.73304],[-74.02064,40.73039],[-74.01425,40.75666],[-74.01861,40.75717],[-74.0238,40.7577],[-74.02624,40.75743],[-74.02773,40.75711],[-74.02848,40.75813],[-74.02993,40.75869],[-74.03177,40.75898],[-74.03228,40.75876],[-74.03381,40.75723],[-74.03501,40.75495],[-74.03778,40.75032]]]},"properties":{"id":"NJ-HOBOKEN","name":"Hoboken","geoid":"3432250"}},{"type":"Feature","geometry":{"type":"Polygon","coordinates":[[[-71.1647,42.30383],[-71.17864,42.2946],[-71.1909,42.28325],[-71.19125,42.28299],[-71.19075,42.28184],[-71.18821,42.28044],[-71.18551,42.27968],[-71.18326,42.27599],[-71.18305,42.27585],[-71.17855,42.27671],[-71.17678,42.2768],[-71.17497,42.276],[-71.17442,42.27504],[-71.17482,42.2742],[-71.17461,42.27301],[-71.17386,42.27199],[-71.17296,42.27013],[-71.17461,42.26837],[-71.17444,42.26734],[-71.17333,42.26665],[-71.17183,42.26635],[-71.17132,42.26535],[-71.15858,42.25516],[-71.15231,42.25834],[-71.14664,42.25576],[-71.1456,42.2501],[-71.14454,42.24511],[-71.14268,42.236],[-71.13077,42.22793],[-71.13075,42.22791],[-71.12949,42.22878],[-71.12886,42.22972],[-71.12742,42.23118],[-71.12661,42.23126],[-71.12548,42.23188],[-71.12458,42.23278],[-71.12446,42.23416],[-71.1226,42.23444],[-71.12252,42.2352],[-71.12408,42.23639],[-71.12485,42.23748],[-71.12568,42.2379],[-71.12638,42.23916],[-71.10935,42.24799],[-71.10954,42.25541],[-71.11333,42.25899],[-71.11146,42.26077],[-71.11047,42.26112],[-71.10895,42.2613],[-71.10761,42.26067],[-71.105,42.2608],[-71.10406,42.25986],[-71.10269,42.25988],[-71.10129,42.26068],[-71.09886,42.26259],[-71.09774,42.26293],[-71.09675,42.26434],[-71.09526,42.26579],[-71.09413,42.26713],[-71.09263,42.26673],[-71.09082,42.26648],[-71.09026,42.26664],[-71.08986,42.26778],[-71.09021,42.26899],[-71.08915,42.26974],[-71.0881,42.26963],[-71.08338,42.26869],[-71.08249,42.26867],[-71.08085,42.26932],[-71.07888,42.26958],[-71.07649,42.27051],[-71.07525,42.2703],[-71.07299,42.27034],[-71.07204,42.27082],[-71.07061,42.27063],[-71.06837,42.27083],[-71.0677,42.27149],[-71.06604,42.27127],[-71.0651,42.27066],[-71.06469,42.26861],[-71.06351,42.26756],[-71.06219,42.26716],[-71.06098,42.26745],[-71.05384,42.2717],[-71.05349,42.27246],[-71.0541,42.27344],[-71.055,42.27417],[-71.05557,42.27505],[-71.05524,42.27634],[-71.0544,42.27702],[-71.05328,42.2775],[-71.0498,42.2781],[-71.04858,42.27791],[-71.04712,42.27708],[-71.04488,42.27627],[-71.04278,42.2771],[-71.04159,42.2781],[-71.04049,42.2819],[-71.03929,42.2838],[-71.03789,42.2849],[-71.03529,42.2888],[-71.04129,42.3001],[-71.04169,42.3053],[-71.03709,42.3066],[-71.02839,42.3088],[-71.02209,42.3056],[-71.01539,42.3067],[-71.0102,42.30531],[-71.00917,42.30548],[-71.00209,42.3087],[-70.99859,42.312],[-70.98869,42.3136],[-70.98178,42.30838],[-70.97599,42.3001],[-70.96019,42.2995],[-70.94899,42.3013],[-70.93709,42.3111],[-70.92719,42.3101],[-70.91709,42.3142],[-70.90569,42.317],[-70.90055,42.342],[-70.89429,42.3724],[-70.85119,42.3725],[-70.75146,42.37334],[-70.74949,42.37334],[-70.74885,42.37375],[-70.7488,42.40021],[-70.74949,42.40082],[-70.85144,42.39321],[-70.90129,42.3841],[-70.91789,42.386],[-70.96705,42.35695],[-70.97289,42.3536],[-70.98259,42.356],[-70.98559,42.3568],[-70.9866,42.36457],[-70.99894,42.36476],[-71.00069,42.36464],[-71.01036,42.36503],[-71.00612,42.37605],[-71.00061,42.37764],[-70.99931,42.37779],[-70.99669,42.37874],[-70.99465,42.38115],[-70.99467,42.38237],[-70.99424,42.38465],[-70.98828,42.38711],[-70.9869,42.38692],[-70.98605,42.38812],[-70.98729,42.38873],[-70.98757,42.39058],[-70.98711,42.39199],[-70.98744,42.39274],[-70.98977,42.39324],[-70.99033,42.3931],[-70.99382,42.39292],[-70.9954,42.39388],[-70.99647,42.39631],[-70.99816,42.39689],[-70.99915,42.39698],[-71.00141,42.39674],[-71.00538,42.39409],[-71.00586,42.39389],[-71.00894,42.39519],[-71.01193,42.39575],[-71.01127,42.39659],[-71.01339,42.3974],[-71.01609,42.3959],[-71.01779,42.3907],[-71.02051,42.38764],[-71.02243,42.38637],[-71.02771,42.38404],[-71.03199,42.3846],[-71.03323,42.38491],[-71.03497,42.38588],[-71.03836,42.38653],[-71.03951,42.38685],[-71.04326,42.38359],[-71.0443,42.38321],[-71.04708,42.3851],[-71.04819,42.38569],[-71.05529,42.3871],[-71.05739,42.3873],[-71.0657,42.3866],[-71.0709,42.389],[-71.0707,42.3896],[-71.06912,42.39178],[-71.06741,42.39348],[-71.06686,42.39498],[-71.06737,42.3953],[-71.06904,42.39389],[-71.06932,42.39402],[-71.0727,42.3908],[-71.0735,42.3918],[-71.0742,42.3907],[-71.07971,42.38292],[-71.08097,42.38232],[-71.0807,42.38104],[-71.07566,42.3802],[-71.07269,42.37322],[-71.07247,42.37266],[-71.06711,42.37182],[-71.06398,42.36893],[-71.06948,42.36905],[-71.07372,42.36506],[-71.07509,42.3632],[-71.07609,42.36038],[-71.07681,42.3595],[-71.07795,42.35874],[-71.091,42.3544],[-71.093,42.35389],[-71.09724,42.35319],[-71.10432,42.3524],[-71.11008,42.35255],[-71.11246,42.3529],[-71.11409,42.35345],[-71.11591,42.35453],[-71.11685,42.35539],[-71.11716,42.357],[-71.11658,42.35957],[-71.11694,42.36368],[-71.11697,42.36665],[-71.11769,42.36815],[-71.11819,42.36853],[-71.11955,42.36884],[-71.12204,42.3687],[-71.12311,42.36891],[-71.12445,42.36951],[-71.12602,42.37195],[-71.1282,42.37357],[-71.13017,42.37396],[-71.13152,42.3738],[-71.13272,42.3732],[-71.13309,42.37198],[-71.13218,42.3709],[-71.13176,42.36986],[-71.13294,42.36849],[-71.13417,42.36776],[-71.13572,42.36727],[-71.13666,42.36675],[-71.13856,42.3651],[-71.13969,42.36448],[-71.14041,42.3644],[-71.14367,42.36508],[-71.14449,42.36482],[-71.14524,42.36415],[-71.14593,42.36294],[-71.1473,42.36164],[-71.14833,42.36112],[-71.15248,42.36068],[-71.15448,42.36004],[-71.15636,42.35985],[-71.15883,42.35996],[-71.16096,42.35929],[-71.16228,42.35856],[-71.16389,42.35852],[-71.16569,42.35971],[-71.16762,42.36007],[-71.16807,42.35953],[-71.17392,42.35347],[-71.17485,42.35034],[-71.16668,42.3401],[-71.16681,42.33929],[-71.16863,42.33863],[-71.16922,42.33807],[-71.16889,42.33583],[-71.16756,42.33344],[-71.16297,42.33395],[-71.16092,42.33364],[-71.15932,42.33277],[-71.15704,42.33039],[-71.14985,42.33464],[-71.15006,42.33539],[-71.14829,42.33581],[-71.14874,42.33687],[-71.14616,42.33744],[-71.14661,42.33854],[-71.14421,42.34002],[-71.14194,42.34001],[-71.14133,42.34105],[-71.13528,42.34594],[-71.13338,42.34712],[-71.12901,42.3492],[-71.12858,42.34983],[-71.12707,42.35001],[-71.12583,42.35049],[-71.12407,42.35155],[-71.12285,42.35186],[-71.10657,42.34991],[-71.10721,42.34705],[-71.10552,42.34381],[-71.10651,42.34311],[-71.10819,42.34233],[-71.10849,42.34184],[-71.10955,42.34149],[-71.11058,42.34044],[-71.11088,42.33888],[-71.11155,42.3373],[-71.11071,42.33621],[-71.11052,42.3354],[-71.11219,42.3338],[-71.11321,42.33246],[-71.11357,42.33047],[-71.11504,42.32731],[-71.11596,42.32638],[-71.11595,42.32574],[-71.11677,42.32377],[-71.1184,42.32346],[-71.11887,42.32286],[-71.12011,42.32284],[-71.12153,42.32388],[-71.12427,42.32186],[-71.12689,42.31894],[-71.13186,42.31318],[-71.13446,42.3091],[-71.1365,42.3062],[-71.1401,42.30217],[-71.14688,42.29728],[-71.15211,42.29459],[-71.1647,42.30383]]]},"properties":{"id":"MA-BOSTON","name":"Boston","geoid":"2507000"}},{"type":"Feature","geometry":{"type":"Polygon","coordinates":[[[-71.15224,42.40082],[-71.15638,42.39582],[-71.15845,42.39455],[-71.1571,42.39029],[-71.15789,42.38727],[-71.15859,42.38678],[-71.1604,42.38654],[-71.15829,42.38327],[-71.15778,42.38214],[-71.15562,42.38148],[-71.15505,42.3802],[-71.15623,42.38064],[-71.15437,42.3751],[-71.15038,42.37461],[-71.15024,42.37438],[-71.14645,42.37512],[-71.14363,42.37528],[-71.14392,42.37407],[-71.13999,42.37357],[-71.14011,42.37201],[-71.1406,42.37002],[-71.14246,42.36702],[-71.14427,42.36645],[-71.14367,42.36508],[-71.14041,42.3644],[-71.13969,42.36448],[-71.13856,42.3651],[-71.13666,42.36675],[-71.13572,42.36727],[-71.13417,42.36776],[-71.13294,42.36849],[-71.13176,42.36986],[-71.13218,42.3709],[-71.13309,42.37198],[-71.13272,42.3732],[-71.13152,42.3738],[-71.13017,42.37396],[-71.1282,42.37357],[-71.12602,42.37195],[-71.12445,42.36951],[-71.12311,42.36891],[-71.12204,42.3687],[-71.11955,42.36884],[-71.11819,42.36853],[-71.11769,42.36815],[-71.11697,42.36665],[-71.11694,42.36368],[-71.11658,42.35957],[-71.11716,42.357],[-71.11685,42.35539],[-71.11591,42.35453],[-71.11409,42.35345],[-71.11246,42.3529],[-71.11008,42.35255],[-71.10432,42.3524],[-71.09724,42.35319],[-71.093,42.35389],[-71.091,42.3544],[-71.07795,42.35874],[-71.07681,42.3595],[-71.07609,42.36038],[-71.07509,42.3632],[-71.07372,42.36506],[-71.06948,42.36905],[-71.06398,42.36893],[-71.06711,42.37182],[-71.07247,42.37266],[-71.07269,42.37322],[-71.07386,42.3726],[-71.0749,42.37288],[-71.076,42.37403],[-71.07784,42.37358],[-71.0791,42.37418],[-71.08166,42.37396],[-71.082,42.37356],[-71.08444,42.3733],[-71.0855,42.37397],[-71.08609,42.37306],[-71.08978,42.37395],[-71.09374,42.37425],[-71.09746,42.37443],[-71.1032,42.37433],[-71.10846,42.37911],[-71.10785,42.37937],[-71.1107,42.38169],[-71.11166,42.38175],[-71.11558,42.38516],[-71.11686,42.38669],[-71.11819,42.38801],[-71.11745,42.38839],[-71.11801,42.3891],[-71.11708,42.38958],[-71.12021,42.39264],[-71.12097,42.39371],[-71.12284,42.39224],[-71.12431,42.39358],[-71.1313,42.40158],[-71.13463,42.40426],[-71.13509,42.40249],[-71.1363,42.40099],[-71.13807,42.40026],[-71.13971,42.40007],[-71.1409,42.39953],[-71.14163,42.39871],[-71.14359,42.39741],[-71.15206,42.40104],[-71.15224,42.40082]]]},"properties":{"id":"MA-CAMBRIDGE","name":"Cambridge","geoid":"2511000"}}],"source":"US Census Bureau, TIGER/Line Shapefiles 2025, Places; https://www2.census.gov/geo/tiger/TIGER2025/PLACE/; retrieved 2026-10-04; simplified with mapshaper"}